[{"city_id":1,"city_name":"Aceh Barat","city_name_canonical":"aceh barat","province_id":21,"province":"Nanggroe Aceh Darussalam (NAD)","provice_canonical":"nanggroe aceh darussalam (nad)","type":"Kabupaten","postal_code":"23681"},{"city_id":2,"city_name":"Aceh Barat Daya","city_name_canonical":"aceh barat daya","province_id":21,"province":"Nanggroe Aceh Darussalam (NAD)","provice_canonical":"nanggroe aceh darussalam (nad)","type":"Kabupaten","postal_code":"23764"},{"city_id":3,"city_name":"Aceh Besar","city_name_canonical":"aceh besar","province_id":21,"province":"Nanggroe Aceh Darussalam (NAD)","provice_canonical":"nanggroe aceh darussalam (nad)","type":"Kabupaten","postal_code":"23951"},{"city_id":4,"city_name":"Aceh Jaya","city_name_canonical":"aceh jaya","province_id":21,"province":"Nanggroe Aceh Darussalam (NAD)","provice_canonical":"nanggroe aceh darussalam (nad)","type":"Kabupaten","postal_code":"23654"},{"city_id":5,"city_name":"Aceh Selatan","city_name_canonical":"aceh selatan","province_id":21,"province":"Nanggroe Aceh Darussalam (NAD)","provice_canonical":"nanggroe aceh darussalam (nad)","type":"Kabupaten","postal_code":"23719"},{"city_id":6,"city_name":"Aceh Singkil","city_name_canonical":"aceh singkil","province_id":21,"province":"Nanggroe Aceh Darussalam (NAD)","provice_canonical":"nanggroe aceh darussalam (nad)","type":"Kabupaten","postal_code":"24785"},{"city_id":7,"city_name":"Aceh Tamiang","city_name_canonical":"aceh tamiang","province_id":21,"province":"Nanggroe Aceh Darussalam (NAD)","provice_canonical":"nanggroe aceh darussalam (nad)","type":"Kabupaten","postal_code":"24476"},{"city_id":8,"city_name":"Aceh Tengah","city_name_canonical":"aceh tengah","province_id":21,"province":"Nanggroe Aceh Darussalam (NAD)","provice_canonical":"nanggroe aceh darussalam (nad)","type":"Kabupaten","postal_code":"24511"},{"city_id":9,"city_name":"Aceh Tenggara","city_name_canonical":"aceh tenggara","province_id":21,"province":"Nanggroe Aceh Darussalam (NAD)","provice_canonical":"nanggroe aceh darussalam (nad)","type":"Kabupaten","postal_code":"24611"},{"city_id":10,"city_name":"Aceh Timur","city_name_canonical":"aceh timur","province_id":21,"province":"Nanggroe Aceh Darussalam (NAD)","provice_canonical":"nanggroe aceh darussalam (nad)","type":"Kabupaten","postal_code":"24454"},{"city_id":11,"city_name":"Aceh Utara","city_name_canonical":"aceh utara","province_id":21,"province":"Nanggroe Aceh Darussalam (NAD)","provice_canonical":"nanggroe aceh darussalam (nad)","type":"Kabupaten","postal_code":"24382"},{"city_id":12,"city_name":"Agam","city_name_canonical":"agam","province_id":32,"province":"Sumatera Barat","provice_canonical":"sumatera barat","type":"Kabupaten","postal_code":"26411"},{"city_id":13,"city_name":"Alor","city_name_canonical":"alor","province_id":23,"province":"Nusa Tenggara Timur (NTT)","provice_canonical":"nusa tenggara timur (ntt)","type":"Kabupaten","postal_code":"85811"},{"city_id":14,"city_name":"Ambon","city_name_canonical":"ambon","province_id":19,"province":"Maluku","provice_canonical":"maluku","type":"Kota","postal_code":"97222"},{"city_id":15,"city_name":"Asahan","city_name_canonical":"asahan","province_id":34,"province":"Sumatera Utara","provice_canonical":"sumatera utara","type":"Kabupaten","postal_code":"21214"},{"city_id":16,"city_name":"Asmat","city_name_canonical":"asmat","province_id":24,"province":"Papua","provice_canonical":"papua","type":"Kabupaten","postal_code":"99777"},{"city_id":17,"city_name":"Badung","city_name_canonical":"badung","province_id":1,"province":"Bali","provice_canonical":"bali","type":"Kabupaten","postal_code":"80351"},{"city_id":18,"city_name":"Balangan","city_name_canonical":"balangan","province_id":13,"province":"Kalimantan Selatan","provice_canonical":"kalimantan selatan","type":"Kabupaten","postal_code":"71611"},{"city_id":19,"city_name":"Balikpapan","city_name_canonical":"balikpapan","province_id":15,"province":"Kalimantan Timur","provice_canonical":"kalimantan timur","type":"Kota","postal_code":"76111"},{"city_id":20,"city_name":"Banda Aceh","city_name_canonical":"banda aceh","province_id":21,"province":"Nanggroe Aceh Darussalam (NAD)","provice_canonical":"nanggroe aceh darussalam (nad)","type":"Kota","postal_code":"23238"},{"city_id":21,"city_name":"Bandar Lampung","city_name_canonical":"bandar lampung","province_id":18,"province":"Lampung","provice_canonical":"lampung","type":"Kota","postal_code":"35139"},{"city_id":22,"city_name":"Bandung","city_name_canonical":"bandung","province_id":9,"province":"Jawa Barat","provice_canonical":"jawa barat","type":"Kabupaten","postal_code":"40311"},{"city_id":23,"city_name":"Bandung","city_name_canonical":"bandung","province_id":9,"province":"Jawa Barat","provice_canonical":"jawa barat","type":"Kota","postal_code":"40115"},{"city_id":24,"city_name":"Bandung Barat","city_name_canonical":"bandung barat","province_id":9,"province":"Jawa Barat","provice_canonical":"jawa barat","type":"Kabupaten","postal_code":"40721"},{"city_id":25,"city_name":"Banggai","city_name_canonical":"banggai","province_id":29,"province":"Sulawesi Tengah","provice_canonical":"sulawesi tengah","type":"Kabupaten","postal_code":"94711"},{"city_id":26,"city_name":"Banggai Kepulauan","city_name_canonical":"banggai kepulauan","province_id":29,"province":"Sulawesi Tengah","provice_canonical":"sulawesi tengah","type":"Kabupaten","postal_code":"94881"},{"city_id":27,"city_name":"Bangka","city_name_canonical":"bangka","province_id":2,"province":"Bangka Belitung","provice_canonical":"bangka belitung","type":"Kabupaten","postal_code":"33212"},{"city_id":28,"city_name":"Bangka Barat","city_name_canonical":"bangka barat","province_id":2,"province":"Bangka Belitung","provice_canonical":"bangka belitung","type":"Kabupaten","postal_code":"33315"},{"city_id":29,"city_name":"Bangka Selatan","city_name_canonical":"bangka selatan","province_id":2,"province":"Bangka Belitung","provice_canonical":"bangka belitung","type":"Kabupaten","postal_code":"33719"},{"city_id":30,"city_name":"Bangka Tengah","city_name_canonical":"bangka tengah","province_id":2,"province":"Bangka Belitung","provice_canonical":"bangka belitung","type":"Kabupaten","postal_code":"33613"},{"city_id":31,"city_name":"Bangkalan","city_name_canonical":"bangkalan","province_id":11,"province":"Jawa Timur","provice_canonical":"jawa timur","type":"Kabupaten","postal_code":"69118"},{"city_id":32,"city_name":"Bangli","city_name_canonical":"bangli","province_id":1,"province":"Bali","provice_canonical":"bali","type":"Kabupaten","postal_code":"80619"},{"city_id":33,"city_name":"Banjar","city_name_canonical":"banjar","province_id":13,"province":"Kalimantan Selatan","provice_canonical":"kalimantan selatan","type":"Kabupaten","postal_code":"70619"},{"city_id":34,"city_name":"Banjar","city_name_canonical":"banjar","province_id":9,"province":"Jawa Barat","provice_canonical":"jawa barat","type":"Kota","postal_code":"46311"},{"city_id":35,"city_name":"Banjarbaru","city_name_canonical":"banjarbaru","province_id":13,"province":"Kalimantan Selatan","provice_canonical":"kalimantan selatan","type":"Kota","postal_code":"70712"},{"city_id":36,"city_name":"Banjarmasin","city_name_canonical":"banjarmasin","province_id":13,"province":"Kalimantan Selatan","provice_canonical":"kalimantan selatan","type":"Kota","postal_code":"70117"},{"city_id":37,"city_name":"Banjarnegara","city_name_canonical":"banjarnegara","province_id":10,"province":"Jawa Tengah","provice_canonical":"jawa tengah","type":"Kabupaten","postal_code":"53419"},{"city_id":38,"city_name":"Bantaeng","city_name_canonical":"bantaeng","province_id":28,"province":"Sulawesi Selatan","provice_canonical":"sulawesi selatan","type":"Kabupaten","postal_code":"92411"},{"city_id":39,"city_name":"Bantul","city_name_canonical":"bantul","province_id":5,"province":"DI Yogyakarta","provice_canonical":"di yogyakarta","type":"Kabupaten","postal_code":"55715"},{"city_id":40,"city_name":"Banyuasin","city_name_canonical":"banyuasin","province_id":33,"province":"Sumatera Selatan","provice_canonical":"sumatera selatan","type":"Kabupaten","postal_code":"30911"},{"city_id":41,"city_name":"Banyumas","city_name_canonical":"banyumas","province_id":10,"province":"Jawa Tengah","provice_canonical":"jawa tengah","type":"Kabupaten","postal_code":"53114"},{"city_id":42,"city_name":"Banyuwangi","city_name_canonical":"banyuwangi","province_id":11,"province":"Jawa Timur","provice_canonical":"jawa timur","type":"Kabupaten","postal_code":"68416"},{"city_id":43,"city_name":"Barito Kuala","city_name_canonical":"barito kuala","province_id":13,"province":"Kalimantan Selatan","provice_canonical":"kalimantan selatan","type":"Kabupaten","postal_code":"70511"},{"city_id":44,"city_name":"Barito Selatan","city_name_canonical":"barito selatan","province_id":14,"province":"Kalimantan Tengah","provice_canonical":"kalimantan tengah","type":"Kabupaten","postal_code":"73711"},{"city_id":45,"city_name":"Barito Timur","city_name_canonical":"barito timur","province_id":14,"province":"Kalimantan Tengah","provice_canonical":"kalimantan tengah","type":"Kabupaten","postal_code":"73671"},{"city_id":46,"city_name":"Barito Utara","city_name_canonical":"barito utara","province_id":14,"province":"Kalimantan Tengah","provice_canonical":"kalimantan tengah","type":"Kabupaten","postal_code":"73881"},{"city_id":47,"city_name":"Barru","city_name_canonical":"barru","province_id":28,"province":"Sulawesi Selatan","provice_canonical":"sulawesi selatan","type":"Kabupaten","postal_code":"90719"},{"city_id":48,"city_name":"Batam","city_name_canonical":"batam","province_id":17,"province":"Kepulauan Riau","provice_canonical":"kepulauan riau","type":"Kota","postal_code":"29413"},{"city_id":49,"city_name":"Batang","city_name_canonical":"batang","province_id":10,"province":"Jawa Tengah","provice_canonical":"jawa tengah","type":"Kabupaten","postal_code":"51211"},{"city_id":50,"city_name":"Batang Hari","city_name_canonical":"batang hari","province_id":8,"province":"Jambi","provice_canonical":"jambi","type":"Kabupaten","postal_code":"36613"},{"city_id":51,"city_name":"Batu","city_name_canonical":"batu","province_id":11,"province":"Jawa Timur","provice_canonical":"jawa timur","type":"Kota","postal_code":"65311"},{"city_id":52,"city_name":"Batu Bara","city_name_canonical":"batu bara","province_id":34,"province":"Sumatera Utara","provice_canonical":"sumatera utara","type":"Kabupaten","postal_code":"21655"},{"city_id":53,"city_name":"Bau-Bau","city_name_canonical":"bau-bau","province_id":30,"province":"Sulawesi Tenggara","provice_canonical":"sulawesi tenggara","type":"Kota","postal_code":"93719"},{"city_id":54,"city_name":"Bekasi","city_name_canonical":"bekasi","province_id":9,"province":"Jawa Barat","provice_canonical":"jawa barat","type":"Kabupaten","postal_code":"17837"},{"city_id":55,"city_name":"Bekasi","city_name_canonical":"bekasi","province_id":9,"province":"Jawa Barat","provice_canonical":"jawa barat","type":"Kota","postal_code":"17121"},{"city_id":56,"city_name":"Belitung","city_name_canonical":"belitung","province_id":2,"province":"Bangka Belitung","provice_canonical":"bangka belitung","type":"Kabupaten","postal_code":"33419"},{"city_id":57,"city_name":"Belitung Timur","city_name_canonical":"belitung timur","province_id":2,"province":"Bangka Belitung","provice_canonical":"bangka belitung","type":"Kabupaten","postal_code":"33519"},{"city_id":58,"city_name":"Belu","city_name_canonical":"belu","province_id":23,"province":"Nusa Tenggara Timur (NTT)","provice_canonical":"nusa tenggara timur (ntt)","type":"Kabupaten","postal_code":"85711"},{"city_id":59,"city_name":"Bener Meriah","city_name_canonical":"bener meriah","province_id":21,"province":"Nanggroe Aceh Darussalam (NAD)","provice_canonical":"nanggroe aceh darussalam (nad)","type":"Kabupaten","postal_code":"24581"},{"city_id":60,"city_name":"Bengkalis","city_name_canonical":"bengkalis","province_id":26,"province":"Riau","provice_canonical":"riau","type":"Kabupaten","postal_code":"28719"},{"city_id":61,"city_name":"Bengkayang","city_name_canonical":"bengkayang","province_id":12,"province":"Kalimantan Barat","provice_canonical":"kalimantan barat","type":"Kabupaten","postal_code":"79213"},{"city_id":62,"city_name":"Bengkulu","city_name_canonical":"bengkulu","province_id":4,"province":"Bengkulu","provice_canonical":"bengkulu","type":"Kota","postal_code":"38229"},{"city_id":63,"city_name":"Bengkulu Selatan","city_name_canonical":"bengkulu selatan","province_id":4,"province":"Bengkulu","provice_canonical":"bengkulu","type":"Kabupaten","postal_code":"38519"},{"city_id":64,"city_name":"Bengkulu Tengah","city_name_canonical":"bengkulu tengah","province_id":4,"province":"Bengkulu","provice_canonical":"bengkulu","type":"Kabupaten","postal_code":"38319"},{"city_id":65,"city_name":"Bengkulu Utara","city_name_canonical":"bengkulu utara","province_id":4,"province":"Bengkulu","provice_canonical":"bengkulu","type":"Kabupaten","postal_code":"38619"},{"city_id":66,"city_name":"Berau","city_name_canonical":"berau","province_id":15,"province":"Kalimantan Timur","provice_canonical":"kalimantan timur","type":"Kabupaten","postal_code":"77311"},{"city_id":67,"city_name":"Biak Numfor","city_name_canonical":"biak numfor","province_id":24,"province":"Papua","provice_canonical":"papua","type":"Kabupaten","postal_code":"98119"},{"city_id":68,"city_name":"Bima","city_name_canonical":"bima","province_id":22,"province":"Nusa Tenggara Barat (NTB)","provice_canonical":"nusa tenggara barat (ntb)","type":"Kabupaten","postal_code":"84171"},{"city_id":69,"city_name":"Bima","city_name_canonical":"bima","province_id":22,"province":"Nusa Tenggara Barat (NTB)","provice_canonical":"nusa tenggara barat (ntb)","type":"Kota","postal_code":"84139"},{"city_id":70,"city_name":"Binjai","city_name_canonical":"binjai","province_id":34,"province":"Sumatera Utara","provice_canonical":"sumatera utara","type":"Kota","postal_code":"20712"},{"city_id":71,"city_name":"Bintan","city_name_canonical":"bintan","province_id":17,"province":"Kepulauan Riau","provice_canonical":"kepulauan riau","type":"Kabupaten","postal_code":"29135"},{"city_id":72,"city_name":"Bireuen","city_name_canonical":"bireuen","province_id":21,"province":"Nanggroe Aceh Darussalam (NAD)","provice_canonical":"nanggroe aceh darussalam (nad)","type":"Kabupaten","postal_code":"24219"},{"city_id":73,"city_name":"Bitung","city_name_canonical":"bitung","province_id":31,"province":"Sulawesi Utara","provice_canonical":"sulawesi utara","type":"Kota","postal_code":"95512"},{"city_id":74,"city_name":"Blitar","city_name_canonical":"blitar","province_id":11,"province":"Jawa Timur","provice_canonical":"jawa timur","type":"Kabupaten","postal_code":"66171"},{"city_id":75,"city_name":"Blitar","city_name_canonical":"blitar","province_id":11,"province":"Jawa Timur","provice_canonical":"jawa timur","type":"Kota","postal_code":"66124"},{"city_id":76,"city_name":"Blora","city_name_canonical":"blora","province_id":10,"province":"Jawa Tengah","provice_canonical":"jawa tengah","type":"Kabupaten","postal_code":"58219"},{"city_id":77,"city_name":"Boalemo","city_name_canonical":"boalemo","province_id":7,"province":"Gorontalo","provice_canonical":"gorontalo","type":"Kabupaten","postal_code":"96319"},{"city_id":78,"city_name":"Bogor","city_name_canonical":"bogor","province_id":9,"province":"Jawa Barat","provice_canonical":"jawa barat","type":"Kabupaten","postal_code":"16911"},{"city_id":79,"city_name":"Bogor","city_name_canonical":"bogor","province_id":9,"province":"Jawa Barat","provice_canonical":"jawa barat","type":"Kota","postal_code":"16119"},{"city_id":80,"city_name":"Bojonegoro","city_name_canonical":"bojonegoro","province_id":11,"province":"Jawa Timur","provice_canonical":"jawa timur","type":"Kabupaten","postal_code":"62119"},{"city_id":81,"city_name":"Bolaang Mongondow (Bolmong)","city_name_canonical":"bolaang mongondow (bolmong)","province_id":31,"province":"Sulawesi Utara","provice_canonical":"sulawesi utara","type":"Kabupaten","postal_code":"95755"},{"city_id":82,"city_name":"Bolaang Mongondow Selatan","city_name_canonical":"bolaang mongondow selatan","province_id":31,"province":"Sulawesi Utara","provice_canonical":"sulawesi utara","type":"Kabupaten","postal_code":"95774"},{"city_id":83,"city_name":"Bolaang Mongondow Timur","city_name_canonical":"bolaang mongondow timur","province_id":31,"province":"Sulawesi Utara","provice_canonical":"sulawesi utara","type":"Kabupaten","postal_code":"95783"},{"city_id":84,"city_name":"Bolaang Mongondow Utara","city_name_canonical":"bolaang mongondow utara","province_id":31,"province":"Sulawesi Utara","provice_canonical":"sulawesi utara","type":"Kabupaten","postal_code":"95765"},{"city_id":85,"city_name":"Bombana","city_name_canonical":"bombana","province_id":30,"province":"Sulawesi Tenggara","provice_canonical":"sulawesi tenggara","type":"Kabupaten","postal_code":"93771"},{"city_id":86,"city_name":"Bondowoso","city_name_canonical":"bondowoso","province_id":11,"province":"Jawa Timur","provice_canonical":"jawa timur","type":"Kabupaten","postal_code":"68219"},{"city_id":87,"city_name":"Bone","city_name_canonical":"bone","province_id":28,"province":"Sulawesi Selatan","provice_canonical":"sulawesi selatan","type":"Kabupaten","postal_code":"92713"},{"city_id":88,"city_name":"Bone Bolango","city_name_canonical":"bone bolango","province_id":7,"province":"Gorontalo","provice_canonical":"gorontalo","type":"Kabupaten","postal_code":"96511"},{"city_id":89,"city_name":"Bontang","city_name_canonical":"bontang","province_id":15,"province":"Kalimantan Timur","provice_canonical":"kalimantan timur","type":"Kota","postal_code":"75313"},{"city_id":90,"city_name":"Boven Digoel","city_name_canonical":"boven digoel","province_id":24,"province":"Papua","provice_canonical":"papua","type":"Kabupaten","postal_code":"99662"},{"city_id":91,"city_name":"Boyolali","city_name_canonical":"boyolali","province_id":10,"province":"Jawa Tengah","provice_canonical":"jawa tengah","type":"Kabupaten","postal_code":"57312"},{"city_id":92,"city_name":"Brebes","city_name_canonical":"brebes","province_id":10,"province":"Jawa Tengah","provice_canonical":"jawa tengah","type":"Kabupaten","postal_code":"52212"},{"city_id":93,"city_name":"Bukittinggi","city_name_canonical":"bukittinggi","province_id":32,"province":"Sumatera Barat","provice_canonical":"sumatera barat","type":"Kota","postal_code":"26115"},{"city_id":94,"city_name":"Buleleng","city_name_canonical":"buleleng","province_id":1,"province":"Bali","provice_canonical":"bali","type":"Kabupaten","postal_code":"81111"},{"city_id":95,"city_name":"Bulukumba","city_name_canonical":"bulukumba","province_id":28,"province":"Sulawesi Selatan","provice_canonical":"sulawesi selatan","type":"Kabupaten","postal_code":"92511"},{"city_id":96,"city_name":"Bulungan (Bulongan)","city_name_canonical":"bulungan (bulongan)","province_id":16,"province":"Kalimantan Utara","provice_canonical":"kalimantan utara","type":"Kabupaten","postal_code":"77211"},{"city_id":97,"city_name":"Bungo","city_name_canonical":"bungo","province_id":8,"province":"Jambi","provice_canonical":"jambi","type":"Kabupaten","postal_code":"37216"},{"city_id":98,"city_name":"Buol","city_name_canonical":"buol","province_id":29,"province":"Sulawesi Tengah","provice_canonical":"sulawesi tengah","type":"Kabupaten","postal_code":"94564"},{"city_id":99,"city_name":"Buru","city_name_canonical":"buru","province_id":19,"province":"Maluku","provice_canonical":"maluku","type":"Kabupaten","postal_code":"97371"},{"city_id":100,"city_name":"Buru Selatan","city_name_canonical":"buru selatan","province_id":19,"province":"Maluku","provice_canonical":"maluku","type":"Kabupaten","postal_code":"97351"},{"city_id":101,"city_name":"Buton","city_name_canonical":"buton","province_id":30,"province":"Sulawesi Tenggara","provice_canonical":"sulawesi tenggara","type":"Kabupaten","postal_code":"93754"},{"city_id":102,"city_name":"Buton Utara","city_name_canonical":"buton utara","province_id":30,"province":"Sulawesi Tenggara","provice_canonical":"sulawesi tenggara","type":"Kabupaten","postal_code":"93745"},{"city_id":103,"city_name":"Ciamis","city_name_canonical":"ciamis","province_id":9,"province":"Jawa Barat","provice_canonical":"jawa barat","type":"Kabupaten","postal_code":"46211"},{"city_id":104,"city_name":"Cianjur","city_name_canonical":"cianjur","province_id":9,"province":"Jawa Barat","provice_canonical":"jawa barat","type":"Kabupaten","postal_code":"43217"},{"city_id":105,"city_name":"Cilacap","city_name_canonical":"cilacap","province_id":10,"province":"Jawa Tengah","provice_canonical":"jawa tengah","type":"Kabupaten","postal_code":"53211"},{"city_id":106,"city_name":"Cilegon","city_name_canonical":"cilegon","province_id":3,"province":"Banten","provice_canonical":"banten","type":"Kota","postal_code":"42417"},{"city_id":107,"city_name":"Cimahi","city_name_canonical":"cimahi","province_id":9,"province":"Jawa Barat","provice_canonical":"jawa barat","type":"Kota","postal_code":"40512"},{"city_id":108,"city_name":"Cirebon","city_name_canonical":"cirebon","province_id":9,"province":"Jawa Barat","provice_canonical":"jawa barat","type":"Kabupaten","postal_code":"45611"},{"city_id":109,"city_name":"Cirebon","city_name_canonical":"cirebon","province_id":9,"province":"Jawa Barat","provice_canonical":"jawa barat","type":"Kota","postal_code":"45116"},{"city_id":110,"city_name":"Dairi","city_name_canonical":"dairi","province_id":34,"province":"Sumatera Utara","provice_canonical":"sumatera utara","type":"Kabupaten","postal_code":"22211"},{"city_id":111,"city_name":"Deiyai (Deliyai)","city_name_canonical":"deiyai (deliyai)","province_id":24,"province":"Papua","provice_canonical":"papua","type":"Kabupaten","postal_code":"98784"},{"city_id":112,"city_name":"Deli Serdang","city_name_canonical":"deli serdang","province_id":34,"province":"Sumatera Utara","provice_canonical":"sumatera utara","type":"Kabupaten","postal_code":"20511"},{"city_id":113,"city_name":"Demak","city_name_canonical":"demak","province_id":10,"province":"Jawa Tengah","provice_canonical":"jawa tengah","type":"Kabupaten","postal_code":"59519"},{"city_id":114,"city_name":"Denpasar","city_name_canonical":"denpasar","province_id":1,"province":"Bali","provice_canonical":"bali","type":"Kota","postal_code":"80227"},{"city_id":115,"city_name":"Depok","city_name_canonical":"depok","province_id":9,"province":"Jawa Barat","provice_canonical":"jawa barat","type":"Kota","postal_code":"16416"},{"city_id":116,"city_name":"Dharmasraya","city_name_canonical":"dharmasraya","province_id":32,"province":"Sumatera Barat","provice_canonical":"sumatera barat","type":"Kabupaten","postal_code":"27612"},{"city_id":117,"city_name":"Dogiyai","city_name_canonical":"dogiyai","province_id":24,"province":"Papua","provice_canonical":"papua","type":"Kabupaten","postal_code":"98866"},{"city_id":118,"city_name":"Dompu","city_name_canonical":"dompu","province_id":22,"province":"Nusa Tenggara Barat (NTB)","provice_canonical":"nusa tenggara barat (ntb)","type":"Kabupaten","postal_code":"84217"},{"city_id":119,"city_name":"Donggala","city_name_canonical":"donggala","province_id":29,"province":"Sulawesi Tengah","provice_canonical":"sulawesi tengah","type":"Kabupaten","postal_code":"94341"},{"city_id":120,"city_name":"Dumai","city_name_canonical":"dumai","province_id":26,"province":"Riau","provice_canonical":"riau","type":"Kota","postal_code":"28811"},{"city_id":121,"city_name":"Empat Lawang","city_name_canonical":"empat lawang","province_id":33,"province":"Sumatera Selatan","provice_canonical":"sumatera selatan","type":"Kabupaten","postal_code":"31811"},{"city_id":122,"city_name":"Ende","city_name_canonical":"ende","province_id":23,"province":"Nusa Tenggara Timur (NTT)","provice_canonical":"nusa tenggara timur (ntt)","type":"Kabupaten","postal_code":"86351"},{"city_id":123,"city_name":"Enrekang","city_name_canonical":"enrekang","province_id":28,"province":"Sulawesi Selatan","provice_canonical":"sulawesi selatan","type":"Kabupaten","postal_code":"91719"},{"city_id":124,"city_name":"Fakfak","city_name_canonical":"fakfak","province_id":25,"province":"Papua Barat","provice_canonical":"papua barat","type":"Kabupaten","postal_code":"98651"},{"city_id":125,"city_name":"Flores Timur","city_name_canonical":"flores timur","province_id":23,"province":"Nusa Tenggara Timur (NTT)","provice_canonical":"nusa tenggara timur (ntt)","type":"Kabupaten","postal_code":"86213"},{"city_id":126,"city_name":"Garut","city_name_canonical":"garut","province_id":9,"province":"Jawa Barat","provice_canonical":"jawa barat","type":"Kabupaten","postal_code":"44126"},{"city_id":127,"city_name":"Gayo Lues","city_name_canonical":"gayo lues","province_id":21,"province":"Nanggroe Aceh Darussalam (NAD)","provice_canonical":"nanggroe aceh darussalam (nad)","type":"Kabupaten","postal_code":"24653"},{"city_id":128,"city_name":"Gianyar","city_name_canonical":"gianyar","province_id":1,"province":"Bali","provice_canonical":"bali","type":"Kabupaten","postal_code":"80519"},{"city_id":129,"city_name":"Gorontalo","city_name_canonical":"gorontalo","province_id":7,"province":"Gorontalo","provice_canonical":"gorontalo","type":"Kabupaten","postal_code":"96218"},{"city_id":130,"city_name":"Gorontalo","city_name_canonical":"gorontalo","province_id":7,"province":"Gorontalo","provice_canonical":"gorontalo","type":"Kota","postal_code":"96115"},{"city_id":131,"city_name":"Gorontalo Utara","city_name_canonical":"gorontalo utara","province_id":7,"province":"Gorontalo","provice_canonical":"gorontalo","type":"Kabupaten","postal_code":"96611"},{"city_id":132,"city_name":"Gowa","city_name_canonical":"gowa","province_id":28,"province":"Sulawesi Selatan","provice_canonical":"sulawesi selatan","type":"Kabupaten","postal_code":"92111"},{"city_id":133,"city_name":"Gresik","city_name_canonical":"gresik","province_id":11,"province":"Jawa Timur","provice_canonical":"jawa timur","type":"Kabupaten","postal_code":"61115"},{"city_id":134,"city_name":"Grobogan","city_name_canonical":"grobogan","province_id":10,"province":"Jawa Tengah","provice_canonical":"jawa tengah","type":"Kabupaten","postal_code":"58111"},{"city_id":135,"city_name":"Gunung Kidul","city_name_canonical":"gunung kidul","province_id":5,"province":"DI Yogyakarta","provice_canonical":"di yogyakarta","type":"Kabupaten","postal_code":"55812"},{"city_id":136,"city_name":"Gunung Mas","city_name_canonical":"gunung mas","province_id":14,"province":"Kalimantan Tengah","provice_canonical":"kalimantan tengah","type":"Kabupaten","postal_code":"74511"},{"city_id":137,"city_name":"Gunungsitoli","city_name_canonical":"gunungsitoli","province_id":34,"province":"Sumatera Utara","provice_canonical":"sumatera utara","type":"Kota","postal_code":"22813"},{"city_id":138,"city_name":"Halmahera Barat","city_name_canonical":"halmahera barat","province_id":20,"province":"Maluku Utara","provice_canonical":"maluku utara","type":"Kabupaten","postal_code":"97757"},{"city_id":139,"city_name":"Halmahera Selatan","city_name_canonical":"halmahera selatan","province_id":20,"province":"Maluku Utara","provice_canonical":"maluku utara","type":"Kabupaten","postal_code":"97911"},{"city_id":140,"city_name":"Halmahera Tengah","city_name_canonical":"halmahera tengah","province_id":20,"province":"Maluku Utara","provice_canonical":"maluku utara","type":"Kabupaten","postal_code":"97853"},{"city_id":141,"city_name":"Halmahera Timur","city_name_canonical":"halmahera timur","province_id":20,"province":"Maluku Utara","provice_canonical":"maluku utara","type":"Kabupaten","postal_code":"97862"},{"city_id":142,"city_name":"Halmahera Utara","city_name_canonical":"halmahera utara","province_id":20,"province":"Maluku Utara","provice_canonical":"maluku utara","type":"Kabupaten","postal_code":"97762"},{"city_id":143,"city_name":"Hulu Sungai Selatan","city_name_canonical":"hulu sungai selatan","province_id":13,"province":"Kalimantan Selatan","provice_canonical":"kalimantan selatan","type":"Kabupaten","postal_code":"71212"},{"city_id":144,"city_name":"Hulu Sungai Tengah","city_name_canonical":"hulu sungai tengah","province_id":13,"province":"Kalimantan Selatan","provice_canonical":"kalimantan selatan","type":"Kabupaten","postal_code":"71313"},{"city_id":145,"city_name":"Hulu Sungai Utara","city_name_canonical":"hulu sungai utara","province_id":13,"province":"Kalimantan Selatan","provice_canonical":"kalimantan selatan","type":"Kabupaten","postal_code":"71419"},{"city_id":146,"city_name":"Humbang Hasundutan","city_name_canonical":"humbang hasundutan","province_id":34,"province":"Sumatera Utara","provice_canonical":"sumatera utara","type":"Kabupaten","postal_code":"22457"},{"city_id":147,"city_name":"Indragiri Hilir","city_name_canonical":"indragiri hilir","province_id":26,"province":"Riau","provice_canonical":"riau","type":"Kabupaten","postal_code":"29212"},{"city_id":148,"city_name":"Indragiri Hulu","city_name_canonical":"indragiri hulu","province_id":26,"province":"Riau","provice_canonical":"riau","type":"Kabupaten","postal_code":"29319"},{"city_id":149,"city_name":"Indramayu","city_name_canonical":"indramayu","province_id":9,"province":"Jawa Barat","provice_canonical":"jawa barat","type":"Kabupaten","postal_code":"45214"},{"city_id":150,"city_name":"Intan Jaya","city_name_canonical":"intan jaya","province_id":24,"province":"Papua","provice_canonical":"papua","type":"Kabupaten","postal_code":"98771"},{"city_id":151,"city_name":"Jakarta Barat","city_name_canonical":"jakarta barat","province_id":6,"province":"DKI Jakarta","provice_canonical":"dki jakarta","type":"Kota","postal_code":"11220"},{"city_id":152,"city_name":"Jakarta Pusat","city_name_canonical":"jakarta pusat","province_id":6,"province":"DKI Jakarta","provice_canonical":"dki jakarta","type":"Kota","postal_code":"10540"},{"city_id":153,"city_name":"Jakarta Selatan","city_name_canonical":"jakarta selatan","province_id":6,"province":"DKI Jakarta","provice_canonical":"dki jakarta","type":"Kota","postal_code":"12230"},{"city_id":154,"city_name":"Jakarta Timur","city_name_canonical":"jakarta timur","province_id":6,"province":"DKI Jakarta","provice_canonical":"dki jakarta","type":"Kota","postal_code":"13330"},{"city_id":155,"city_name":"Jakarta Utara","city_name_canonical":"jakarta utara","province_id":6,"province":"DKI Jakarta","provice_canonical":"dki jakarta","type":"Kota","postal_code":"14140"},{"city_id":156,"city_name":"Jambi","city_name_canonical":"jambi","province_id":8,"province":"Jambi","provice_canonical":"jambi","type":"Kota","postal_code":"36111"},{"city_id":157,"city_name":"Jayapura","city_name_canonical":"jayapura","province_id":24,"province":"Papua","provice_canonical":"papua","type":"Kabupaten","postal_code":"99352"},{"city_id":158,"city_name":"Jayapura","city_name_canonical":"jayapura","province_id":24,"province":"Papua","provice_canonical":"papua","type":"Kota","postal_code":"99114"},{"city_id":159,"city_name":"Jayawijaya","city_name_canonical":"jayawijaya","province_id":24,"province":"Papua","provice_canonical":"papua","type":"Kabupaten","postal_code":"99511"},{"city_id":160,"city_name":"Jember","city_name_canonical":"jember","province_id":11,"province":"Jawa Timur","provice_canonical":"jawa timur","type":"Kabupaten","postal_code":"68113"},{"city_id":161,"city_name":"Jembrana","city_name_canonical":"jembrana","province_id":1,"province":"Bali","provice_canonical":"bali","type":"Kabupaten","postal_code":"82251"},{"city_id":162,"city_name":"Jeneponto","city_name_canonical":"jeneponto","province_id":28,"province":"Sulawesi Selatan","provice_canonical":"sulawesi selatan","type":"Kabupaten","postal_code":"92319"},{"city_id":163,"city_name":"Jepara","city_name_canonical":"jepara","province_id":10,"province":"Jawa Tengah","provice_canonical":"jawa tengah","type":"Kabupaten","postal_code":"59419"},{"city_id":164,"city_name":"Jombang","city_name_canonical":"jombang","province_id":11,"province":"Jawa Timur","provice_canonical":"jawa timur","type":"Kabupaten","postal_code":"61415"},{"city_id":165,"city_name":"Kaimana","city_name_canonical":"kaimana","province_id":25,"province":"Papua Barat","provice_canonical":"papua barat","type":"Kabupaten","postal_code":"98671"},{"city_id":166,"city_name":"Kampar","city_name_canonical":"kampar","province_id":26,"province":"Riau","provice_canonical":"riau","type":"Kabupaten","postal_code":"28411"},{"city_id":167,"city_name":"Kapuas","city_name_canonical":"kapuas","province_id":14,"province":"Kalimantan Tengah","provice_canonical":"kalimantan tengah","type":"Kabupaten","postal_code":"73583"},{"city_id":168,"city_name":"Kapuas Hulu","city_name_canonical":"kapuas hulu","province_id":12,"province":"Kalimantan Barat","provice_canonical":"kalimantan barat","type":"Kabupaten","postal_code":"78719"},{"city_id":169,"city_name":"Karanganyar","city_name_canonical":"karanganyar","province_id":10,"province":"Jawa Tengah","provice_canonical":"jawa tengah","type":"Kabupaten","postal_code":"57718"},{"city_id":170,"city_name":"Karangasem","city_name_canonical":"karangasem","province_id":1,"province":"Bali","provice_canonical":"bali","type":"Kabupaten","postal_code":"80819"},{"city_id":171,"city_name":"Karawang","city_name_canonical":"karawang","province_id":9,"province":"Jawa Barat","provice_canonical":"jawa barat","type":"Kabupaten","postal_code":"41311"},{"city_id":172,"city_name":"Karimun","city_name_canonical":"karimun","province_id":17,"province":"Kepulauan Riau","provice_canonical":"kepulauan riau","type":"Kabupaten","postal_code":"29611"},{"city_id":173,"city_name":"Karo","city_name_canonical":"karo","province_id":34,"province":"Sumatera Utara","provice_canonical":"sumatera utara","type":"Kabupaten","postal_code":"22119"},{"city_id":174,"city_name":"Katingan","city_name_canonical":"katingan","province_id":14,"province":"Kalimantan Tengah","provice_canonical":"kalimantan tengah","type":"Kabupaten","postal_code":"74411"},{"city_id":175,"city_name":"Kaur","city_name_canonical":"kaur","province_id":4,"province":"Bengkulu","provice_canonical":"bengkulu","type":"Kabupaten","postal_code":"38911"},{"city_id":176,"city_name":"Kayong Utara","city_name_canonical":"kayong utara","province_id":12,"province":"Kalimantan Barat","provice_canonical":"kalimantan barat","type":"Kabupaten","postal_code":"78852"},{"city_id":177,"city_name":"Kebumen","city_name_canonical":"kebumen","province_id":10,"province":"Jawa Tengah","provice_canonical":"jawa tengah","type":"Kabupaten","postal_code":"54319"},{"city_id":178,"city_name":"Kediri","city_name_canonical":"kediri","province_id":11,"province":"Jawa Timur","provice_canonical":"jawa timur","type":"Kabupaten","postal_code":"64184"},{"city_id":179,"city_name":"Kediri","city_name_canonical":"kediri","province_id":11,"province":"Jawa Timur","provice_canonical":"jawa timur","type":"Kota","postal_code":"64125"},{"city_id":180,"city_name":"Keerom","city_name_canonical":"keerom","province_id":24,"province":"Papua","provice_canonical":"papua","type":"Kabupaten","postal_code":"99461"},{"city_id":181,"city_name":"Kendal","city_name_canonical":"kendal","province_id":10,"province":"Jawa Tengah","provice_canonical":"jawa tengah","type":"Kabupaten","postal_code":"51314"},{"city_id":182,"city_name":"Kendari","city_name_canonical":"kendari","province_id":30,"province":"Sulawesi Tenggara","provice_canonical":"sulawesi tenggara","type":"Kota","postal_code":"93126"},{"city_id":183,"city_name":"Kepahiang","city_name_canonical":"kepahiang","province_id":4,"province":"Bengkulu","provice_canonical":"bengkulu","type":"Kabupaten","postal_code":"39319"},{"city_id":184,"city_name":"Kepulauan Anambas","city_name_canonical":"kepulauan anambas","province_id":17,"province":"Kepulauan Riau","provice_canonical":"kepulauan riau","type":"Kabupaten","postal_code":"29991"},{"city_id":185,"city_name":"Kepulauan Aru","city_name_canonical":"kepulauan aru","province_id":19,"province":"Maluku","provice_canonical":"maluku","type":"Kabupaten","postal_code":"97681"},{"city_id":186,"city_name":"Kepulauan Mentawai","city_name_canonical":"kepulauan mentawai","province_id":32,"province":"Sumatera Barat","provice_canonical":"sumatera barat","type":"Kabupaten","postal_code":"25771"},{"city_id":187,"city_name":"Kepulauan Meranti","city_name_canonical":"kepulauan meranti","province_id":26,"province":"Riau","provice_canonical":"riau","type":"Kabupaten","postal_code":"28791"},{"city_id":188,"city_name":"Kepulauan Sangihe","city_name_canonical":"kepulauan sangihe","province_id":31,"province":"Sulawesi Utara","provice_canonical":"sulawesi utara","type":"Kabupaten","postal_code":"95819"},{"city_id":189,"city_name":"Kepulauan Seribu","city_name_canonical":"kepulauan seribu","province_id":6,"province":"DKI Jakarta","provice_canonical":"dki jakarta","type":"Kabupaten","postal_code":"14550"},{"city_id":190,"city_name":"Kepulauan Siau Tagulandang Biaro (Sitaro)","city_name_canonical":"kepulauan siau tagulandang biaro (sitaro)","province_id":31,"province":"Sulawesi Utara","provice_canonical":"sulawesi utara","type":"Kabupaten","postal_code":"95862"},{"city_id":191,"city_name":"Kepulauan Sula","city_name_canonical":"kepulauan sula","province_id":20,"province":"Maluku Utara","provice_canonical":"maluku utara","type":"Kabupaten","postal_code":"97995"},{"city_id":192,"city_name":"Kepulauan Talaud","city_name_canonical":"kepulauan talaud","province_id":31,"province":"Sulawesi Utara","provice_canonical":"sulawesi utara","type":"Kabupaten","postal_code":"95885"},{"city_id":193,"city_name":"Kepulauan Yapen (Yapen Waropen)","city_name_canonical":"kepulauan yapen (yapen waropen)","province_id":24,"province":"Papua","provice_canonical":"papua","type":"Kabupaten","postal_code":"98211"},{"city_id":194,"city_name":"Kerinci","city_name_canonical":"kerinci","province_id":8,"province":"Jambi","provice_canonical":"jambi","type":"Kabupaten","postal_code":"37167"},{"city_id":195,"city_name":"Ketapang","city_name_canonical":"ketapang","province_id":12,"province":"Kalimantan Barat","provice_canonical":"kalimantan barat","type":"Kabupaten","postal_code":"78874"},{"city_id":196,"city_name":"Klaten","city_name_canonical":"klaten","province_id":10,"province":"Jawa Tengah","provice_canonical":"jawa tengah","type":"Kabupaten","postal_code":"57411"},{"city_id":197,"city_name":"Klungkung","city_name_canonical":"klungkung","province_id":1,"province":"Bali","provice_canonical":"bali","type":"Kabupaten","postal_code":"80719"},{"city_id":198,"city_name":"Kolaka","city_name_canonical":"kolaka","province_id":30,"province":"Sulawesi Tenggara","provice_canonical":"sulawesi tenggara","type":"Kabupaten","postal_code":"93511"},{"city_id":199,"city_name":"Kolaka Utara","city_name_canonical":"kolaka utara","province_id":30,"province":"Sulawesi Tenggara","provice_canonical":"sulawesi tenggara","type":"Kabupaten","postal_code":"93911"},{"city_id":200,"city_name":"Konawe","city_name_canonical":"konawe","province_id":30,"province":"Sulawesi Tenggara","provice_canonical":"sulawesi tenggara","type":"Kabupaten","postal_code":"93411"},{"city_id":201,"city_name":"Konawe Selatan","city_name_canonical":"konawe selatan","province_id":30,"province":"Sulawesi Tenggara","provice_canonical":"sulawesi tenggara","type":"Kabupaten","postal_code":"93811"},{"city_id":202,"city_name":"Konawe Utara","city_name_canonical":"konawe utara","province_id":30,"province":"Sulawesi Tenggara","provice_canonical":"sulawesi tenggara","type":"Kabupaten","postal_code":"93311"},{"city_id":203,"city_name":"Kotabaru","city_name_canonical":"kotabaru","province_id":13,"province":"Kalimantan Selatan","provice_canonical":"kalimantan selatan","type":"Kabupaten","postal_code":"72119"},{"city_id":204,"city_name":"Kotamobagu","city_name_canonical":"kotamobagu","province_id":31,"province":"Sulawesi Utara","provice_canonical":"sulawesi utara","type":"Kota","postal_code":"95711"},{"city_id":205,"city_name":"Kotawaringin Barat","city_name_canonical":"kotawaringin barat","province_id":14,"province":"Kalimantan Tengah","provice_canonical":"kalimantan tengah","type":"Kabupaten","postal_code":"74119"},{"city_id":206,"city_name":"Kotawaringin Timur","city_name_canonical":"kotawaringin timur","province_id":14,"province":"Kalimantan Tengah","provice_canonical":"kalimantan tengah","type":"Kabupaten","postal_code":"74364"},{"city_id":207,"city_name":"Kuantan Singingi","city_name_canonical":"kuantan singingi","province_id":26,"province":"Riau","provice_canonical":"riau","type":"Kabupaten","postal_code":"29519"},{"city_id":208,"city_name":"Kubu Raya","city_name_canonical":"kubu raya","province_id":12,"province":"Kalimantan Barat","provice_canonical":"kalimantan barat","type":"Kabupaten","postal_code":"78311"},{"city_id":209,"city_name":"Kudus","city_name_canonical":"kudus","province_id":10,"province":"Jawa Tengah","provice_canonical":"jawa tengah","type":"Kabupaten","postal_code":"59311"},{"city_id":210,"city_name":"Kulon Progo","city_name_canonical":"kulon progo","province_id":5,"province":"DI Yogyakarta","provice_canonical":"di yogyakarta","type":"Kabupaten","postal_code":"55611"},{"city_id":211,"city_name":"Kuningan","city_name_canonical":"kuningan","province_id":9,"province":"Jawa Barat","provice_canonical":"jawa barat","type":"Kabupaten","postal_code":"45511"},{"city_id":212,"city_name":"Kupang","city_name_canonical":"kupang","province_id":23,"province":"Nusa Tenggara Timur (NTT)","provice_canonical":"nusa tenggara timur (ntt)","type":"Kabupaten","postal_code":"85362"},{"city_id":213,"city_name":"Kupang","city_name_canonical":"kupang","province_id":23,"province":"Nusa Tenggara Timur (NTT)","provice_canonical":"nusa tenggara timur (ntt)","type":"Kota","postal_code":"85119"},{"city_id":214,"city_name":"Kutai Barat","city_name_canonical":"kutai barat","province_id":15,"province":"Kalimantan Timur","provice_canonical":"kalimantan timur","type":"Kabupaten","postal_code":"75711"},{"city_id":215,"city_name":"Kutai Kartanegara","city_name_canonical":"kutai kartanegara","province_id":15,"province":"Kalimantan Timur","provice_canonical":"kalimantan timur","type":"Kabupaten","postal_code":"75511"},{"city_id":216,"city_name":"Kutai Timur","city_name_canonical":"kutai timur","province_id":15,"province":"Kalimantan Timur","provice_canonical":"kalimantan timur","type":"Kabupaten","postal_code":"75611"},{"city_id":217,"city_name":"Labuhan Batu","city_name_canonical":"labuhan batu","province_id":34,"province":"Sumatera Utara","provice_canonical":"sumatera utara","type":"Kabupaten","postal_code":"21412"},{"city_id":218,"city_name":"Labuhan Batu Selatan","city_name_canonical":"labuhan batu selatan","province_id":34,"province":"Sumatera Utara","provice_canonical":"sumatera utara","type":"Kabupaten","postal_code":"21511"},{"city_id":219,"city_name":"Labuhan Batu Utara","city_name_canonical":"labuhan batu utara","province_id":34,"province":"Sumatera Utara","provice_canonical":"sumatera utara","type":"Kabupaten","postal_code":"21711"},{"city_id":220,"city_name":"Lahat","city_name_canonical":"lahat","province_id":33,"province":"Sumatera Selatan","provice_canonical":"sumatera selatan","type":"Kabupaten","postal_code":"31419"},{"city_id":221,"city_name":"Lamandau","city_name_canonical":"lamandau","province_id":14,"province":"Kalimantan Tengah","provice_canonical":"kalimantan tengah","type":"Kabupaten","postal_code":"74611"},{"city_id":222,"city_name":"Lamongan","city_name_canonical":"lamongan","province_id":11,"province":"Jawa Timur","provice_canonical":"jawa timur","type":"Kabupaten","postal_code":"64125"},{"city_id":223,"city_name":"Lampung Barat","city_name_canonical":"lampung barat","province_id":18,"province":"Lampung","provice_canonical":"lampung","type":"Kabupaten","postal_code":"34814"},{"city_id":224,"city_name":"Lampung Selatan","city_name_canonical":"lampung selatan","province_id":18,"province":"Lampung","provice_canonical":"lampung","type":"Kabupaten","postal_code":"35511"},{"city_id":225,"city_name":"Lampung Tengah","city_name_canonical":"lampung tengah","province_id":18,"province":"Lampung","provice_canonical":"lampung","type":"Kabupaten","postal_code":"34212"},{"city_id":226,"city_name":"Lampung Timur","city_name_canonical":"lampung timur","province_id":18,"province":"Lampung","provice_canonical":"lampung","type":"Kabupaten","postal_code":"34319"},{"city_id":227,"city_name":"Lampung Utara","city_name_canonical":"lampung utara","province_id":18,"province":"Lampung","provice_canonical":"lampung","type":"Kabupaten","postal_code":"34516"},{"city_id":228,"city_name":"Landak","city_name_canonical":"landak","province_id":12,"province":"Kalimantan Barat","provice_canonical":"kalimantan barat","type":"Kabupaten","postal_code":"78319"},{"city_id":229,"city_name":"Langkat","city_name_canonical":"langkat","province_id":34,"province":"Sumatera Utara","provice_canonical":"sumatera utara","type":"Kabupaten","postal_code":"20811"},{"city_id":230,"city_name":"Langsa","city_name_canonical":"langsa","province_id":21,"province":"Nanggroe Aceh Darussalam (NAD)","provice_canonical":"nanggroe aceh darussalam (nad)","type":"Kota","postal_code":"24412"},{"city_id":231,"city_name":"Lanny Jaya","city_name_canonical":"lanny jaya","province_id":24,"province":"Papua","provice_canonical":"papua","type":"Kabupaten","postal_code":"99531"},{"city_id":232,"city_name":"Lebak","city_name_canonical":"lebak","province_id":3,"province":"Banten","provice_canonical":"banten","type":"Kabupaten","postal_code":"42319"},{"city_id":233,"city_name":"Lebong","city_name_canonical":"lebong","province_id":4,"province":"Bengkulu","provice_canonical":"bengkulu","type":"Kabupaten","postal_code":"39264"},{"city_id":234,"city_name":"Lembata","city_name_canonical":"lembata","province_id":23,"province":"Nusa Tenggara Timur (NTT)","provice_canonical":"nusa tenggara timur (ntt)","type":"Kabupaten","postal_code":"86611"},{"city_id":235,"city_name":"Lhokseumawe","city_name_canonical":"lhokseumawe","province_id":21,"province":"Nanggroe Aceh Darussalam (NAD)","provice_canonical":"nanggroe aceh darussalam (nad)","type":"Kota","postal_code":"24352"},{"city_id":236,"city_name":"Lima Puluh Koto\/Kota","city_name_canonical":"lima puluh koto\/kota","province_id":32,"province":"Sumatera Barat","provice_canonical":"sumatera barat","type":"Kabupaten","postal_code":"26671"},{"city_id":237,"city_name":"Lingga","city_name_canonical":"lingga","province_id":17,"province":"Kepulauan Riau","provice_canonical":"kepulauan riau","type":"Kabupaten","postal_code":"29811"},{"city_id":238,"city_name":"Lombok Barat","city_name_canonical":"lombok barat","province_id":22,"province":"Nusa Tenggara Barat (NTB)","provice_canonical":"nusa tenggara barat (ntb)","type":"Kabupaten","postal_code":"83311"},{"city_id":239,"city_name":"Lombok Tengah","city_name_canonical":"lombok tengah","province_id":22,"province":"Nusa Tenggara Barat (NTB)","provice_canonical":"nusa tenggara barat (ntb)","type":"Kabupaten","postal_code":"83511"},{"city_id":240,"city_name":"Lombok Timur","city_name_canonical":"lombok timur","province_id":22,"province":"Nusa Tenggara Barat (NTB)","provice_canonical":"nusa tenggara barat (ntb)","type":"Kabupaten","postal_code":"83612"},{"city_id":241,"city_name":"Lombok Utara","city_name_canonical":"lombok utara","province_id":22,"province":"Nusa Tenggara Barat (NTB)","provice_canonical":"nusa tenggara barat (ntb)","type":"Kabupaten","postal_code":"83711"},{"city_id":242,"city_name":"Lubuk Linggau","city_name_canonical":"lubuk linggau","province_id":33,"province":"Sumatera Selatan","provice_canonical":"sumatera selatan","type":"Kota","postal_code":"31614"},{"city_id":243,"city_name":"Lumajang","city_name_canonical":"lumajang","province_id":11,"province":"Jawa Timur","provice_canonical":"jawa timur","type":"Kabupaten","postal_code":"67319"},{"city_id":244,"city_name":"Luwu","city_name_canonical":"luwu","province_id":28,"province":"Sulawesi Selatan","provice_canonical":"sulawesi selatan","type":"Kabupaten","postal_code":"91994"},{"city_id":245,"city_name":"Luwu Timur","city_name_canonical":"luwu timur","province_id":28,"province":"Sulawesi Selatan","provice_canonical":"sulawesi selatan","type":"Kabupaten","postal_code":"92981"},{"city_id":246,"city_name":"Luwu Utara","city_name_canonical":"luwu utara","province_id":28,"province":"Sulawesi Selatan","provice_canonical":"sulawesi selatan","type":"Kabupaten","postal_code":"92911"},{"city_id":247,"city_name":"Madiun","city_name_canonical":"madiun","province_id":11,"province":"Jawa Timur","provice_canonical":"jawa timur","type":"Kabupaten","postal_code":"63153"},{"city_id":248,"city_name":"Madiun","city_name_canonical":"madiun","province_id":11,"province":"Jawa Timur","provice_canonical":"jawa timur","type":"Kota","postal_code":"63122"},{"city_id":249,"city_name":"Magelang","city_name_canonical":"magelang","province_id":10,"province":"Jawa Tengah","provice_canonical":"jawa tengah","type":"Kabupaten","postal_code":"56519"},{"city_id":250,"city_name":"Magelang","city_name_canonical":"magelang","province_id":10,"province":"Jawa Tengah","provice_canonical":"jawa tengah","type":"Kota","postal_code":"56133"},{"city_id":251,"city_name":"Magetan","city_name_canonical":"magetan","province_id":11,"province":"Jawa Timur","provice_canonical":"jawa timur","type":"Kabupaten","postal_code":"63314"},{"city_id":252,"city_name":"Majalengka","city_name_canonical":"majalengka","province_id":9,"province":"Jawa Barat","provice_canonical":"jawa barat","type":"Kabupaten","postal_code":"45412"},{"city_id":253,"city_name":"Majene","city_name_canonical":"majene","province_id":27,"province":"Sulawesi Barat","provice_canonical":"sulawesi barat","type":"Kabupaten","postal_code":"91411"},{"city_id":254,"city_name":"Makassar","city_name_canonical":"makassar","province_id":28,"province":"Sulawesi Selatan","provice_canonical":"sulawesi selatan","type":"Kota","postal_code":"90111"},{"city_id":255,"city_name":"Malang","city_name_canonical":"malang","province_id":11,"province":"Jawa Timur","provice_canonical":"jawa timur","type":"Kabupaten","postal_code":"65163"},{"city_id":256,"city_name":"Malang","city_name_canonical":"malang","province_id":11,"province":"Jawa Timur","provice_canonical":"jawa timur","type":"Kota","postal_code":"65112"},{"city_id":257,"city_name":"Malinau","city_name_canonical":"malinau","province_id":16,"province":"Kalimantan Utara","provice_canonical":"kalimantan utara","type":"Kabupaten","postal_code":"77511"},{"city_id":258,"city_name":"Maluku Barat Daya","city_name_canonical":"maluku barat daya","province_id":19,"province":"Maluku","provice_canonical":"maluku","type":"Kabupaten","postal_code":"97451"},{"city_id":259,"city_name":"Maluku Tengah","city_name_canonical":"maluku tengah","province_id":19,"province":"Maluku","provice_canonical":"maluku","type":"Kabupaten","postal_code":"97513"},{"city_id":260,"city_name":"Maluku Tenggara","city_name_canonical":"maluku tenggara","province_id":19,"province":"Maluku","provice_canonical":"maluku","type":"Kabupaten","postal_code":"97651"},{"city_id":261,"city_name":"Maluku Tenggara Barat","city_name_canonical":"maluku tenggara barat","province_id":19,"province":"Maluku","provice_canonical":"maluku","type":"Kabupaten","postal_code":"97465"},{"city_id":262,"city_name":"Mamasa","city_name_canonical":"mamasa","province_id":27,"province":"Sulawesi Barat","provice_canonical":"sulawesi barat","type":"Kabupaten","postal_code":"91362"},{"city_id":263,"city_name":"Mamberamo Raya","city_name_canonical":"mamberamo raya","province_id":24,"province":"Papua","provice_canonical":"papua","type":"Kabupaten","postal_code":"99381"},{"city_id":264,"city_name":"Mamberamo Tengah","city_name_canonical":"mamberamo tengah","province_id":24,"province":"Papua","provice_canonical":"papua","type":"Kabupaten","postal_code":"99553"},{"city_id":265,"city_name":"Mamuju","city_name_canonical":"mamuju","province_id":27,"province":"Sulawesi Barat","provice_canonical":"sulawesi barat","type":"Kabupaten","postal_code":"91519"},{"city_id":266,"city_name":"Mamuju Utara","city_name_canonical":"mamuju utara","province_id":27,"province":"Sulawesi Barat","provice_canonical":"sulawesi barat","type":"Kabupaten","postal_code":"91571"},{"city_id":267,"city_name":"Manado","city_name_canonical":"manado","province_id":31,"province":"Sulawesi Utara","provice_canonical":"sulawesi utara","type":"Kota","postal_code":"95247"},{"city_id":268,"city_name":"Mandailing Natal","city_name_canonical":"mandailing natal","province_id":34,"province":"Sumatera Utara","provice_canonical":"sumatera utara","type":"Kabupaten","postal_code":"22916"},{"city_id":269,"city_name":"Manggarai","city_name_canonical":"manggarai","province_id":23,"province":"Nusa Tenggara Timur (NTT)","provice_canonical":"nusa tenggara timur (ntt)","type":"Kabupaten","postal_code":"86551"},{"city_id":270,"city_name":"Manggarai Barat","city_name_canonical":"manggarai barat","province_id":23,"province":"Nusa Tenggara Timur (NTT)","provice_canonical":"nusa tenggara timur (ntt)","type":"Kabupaten","postal_code":"86711"},{"city_id":271,"city_name":"Manggarai Timur","city_name_canonical":"manggarai timur","province_id":23,"province":"Nusa Tenggara Timur (NTT)","provice_canonical":"nusa tenggara timur (ntt)","type":"Kabupaten","postal_code":"86811"},{"city_id":272,"city_name":"Manokwari","city_name_canonical":"manokwari","province_id":25,"province":"Papua Barat","provice_canonical":"papua barat","type":"Kabupaten","postal_code":"98311"},{"city_id":273,"city_name":"Manokwari Selatan","city_name_canonical":"manokwari selatan","province_id":25,"province":"Papua Barat","provice_canonical":"papua barat","type":"Kabupaten","postal_code":"98355"},{"city_id":274,"city_name":"Mappi","city_name_canonical":"mappi","province_id":24,"province":"Papua","provice_canonical":"papua","type":"Kabupaten","postal_code":"99853"},{"city_id":275,"city_name":"Maros","city_name_canonical":"maros","province_id":28,"province":"Sulawesi Selatan","provice_canonical":"sulawesi selatan","type":"Kabupaten","postal_code":"90511"},{"city_id":276,"city_name":"Mataram","city_name_canonical":"mataram","province_id":22,"province":"Nusa Tenggara Barat (NTB)","provice_canonical":"nusa tenggara barat (ntb)","type":"Kota","postal_code":"83131"},{"city_id":277,"city_name":"Maybrat","city_name_canonical":"maybrat","province_id":25,"province":"Papua Barat","provice_canonical":"papua barat","type":"Kabupaten","postal_code":"98051"},{"city_id":278,"city_name":"Medan","city_name_canonical":"medan","province_id":34,"province":"Sumatera Utara","provice_canonical":"sumatera utara","type":"Kota","postal_code":"20228"},{"city_id":279,"city_name":"Melawi","city_name_canonical":"melawi","province_id":12,"province":"Kalimantan Barat","provice_canonical":"kalimantan barat","type":"Kabupaten","postal_code":"78619"},{"city_id":280,"city_name":"Merangin","city_name_canonical":"merangin","province_id":8,"province":"Jambi","provice_canonical":"jambi","type":"Kabupaten","postal_code":"37319"},{"city_id":281,"city_name":"Merauke","city_name_canonical":"merauke","province_id":24,"province":"Papua","provice_canonical":"papua","type":"Kabupaten","postal_code":"99613"},{"city_id":282,"city_name":"Mesuji","city_name_canonical":"mesuji","province_id":18,"province":"Lampung","provice_canonical":"lampung","type":"Kabupaten","postal_code":"34911"},{"city_id":283,"city_name":"Metro","city_name_canonical":"metro","province_id":18,"province":"Lampung","provice_canonical":"lampung","type":"Kota","postal_code":"34111"},{"city_id":284,"city_name":"Mimika","city_name_canonical":"mimika","province_id":24,"province":"Papua","provice_canonical":"papua","type":"Kabupaten","postal_code":"99962"},{"city_id":285,"city_name":"Minahasa","city_name_canonical":"minahasa","province_id":31,"province":"Sulawesi Utara","provice_canonical":"sulawesi utara","type":"Kabupaten","postal_code":"95614"},{"city_id":286,"city_name":"Minahasa Selatan","city_name_canonical":"minahasa selatan","province_id":31,"province":"Sulawesi Utara","provice_canonical":"sulawesi utara","type":"Kabupaten","postal_code":"95914"},{"city_id":287,"city_name":"Minahasa Tenggara","city_name_canonical":"minahasa tenggara","province_id":31,"province":"Sulawesi Utara","provice_canonical":"sulawesi utara","type":"Kabupaten","postal_code":"95995"},{"city_id":288,"city_name":"Minahasa Utara","city_name_canonical":"minahasa utara","province_id":31,"province":"Sulawesi Utara","provice_canonical":"sulawesi utara","type":"Kabupaten","postal_code":"95316"},{"city_id":289,"city_name":"Mojokerto","city_name_canonical":"mojokerto","province_id":11,"province":"Jawa Timur","provice_canonical":"jawa timur","type":"Kabupaten","postal_code":"61382"},{"city_id":290,"city_name":"Mojokerto","city_name_canonical":"mojokerto","province_id":11,"province":"Jawa Timur","provice_canonical":"jawa timur","type":"Kota","postal_code":"61316"},{"city_id":291,"city_name":"Morowali","city_name_canonical":"morowali","province_id":29,"province":"Sulawesi Tengah","provice_canonical":"sulawesi tengah","type":"Kabupaten","postal_code":"94911"},{"city_id":292,"city_name":"Muara Enim","city_name_canonical":"muara enim","province_id":33,"province":"Sumatera Selatan","provice_canonical":"sumatera selatan","type":"Kabupaten","postal_code":"31315"},{"city_id":293,"city_name":"Muaro Jambi","city_name_canonical":"muaro jambi","province_id":8,"province":"Jambi","provice_canonical":"jambi","type":"Kabupaten","postal_code":"36311"},{"city_id":294,"city_name":"Muko Muko","city_name_canonical":"muko muko","province_id":4,"province":"Bengkulu","provice_canonical":"bengkulu","type":"Kabupaten","postal_code":"38715"},{"city_id":295,"city_name":"Muna","city_name_canonical":"muna","province_id":30,"province":"Sulawesi Tenggara","provice_canonical":"sulawesi tenggara","type":"Kabupaten","postal_code":"93611"},{"city_id":296,"city_name":"Murung Raya","city_name_canonical":"murung raya","province_id":14,"province":"Kalimantan Tengah","provice_canonical":"kalimantan tengah","type":"Kabupaten","postal_code":"73911"},{"city_id":297,"city_name":"Musi Banyuasin","city_name_canonical":"musi banyuasin","province_id":33,"province":"Sumatera Selatan","provice_canonical":"sumatera selatan","type":"Kabupaten","postal_code":"30719"},{"city_id":298,"city_name":"Musi Rawas","city_name_canonical":"musi rawas","province_id":33,"province":"Sumatera Selatan","provice_canonical":"sumatera selatan","type":"Kabupaten","postal_code":"31661"},{"city_id":299,"city_name":"Nabire","city_name_canonical":"nabire","province_id":24,"province":"Papua","provice_canonical":"papua","type":"Kabupaten","postal_code":"98816"},{"city_id":300,"city_name":"Nagan Raya","city_name_canonical":"nagan raya","province_id":21,"province":"Nanggroe Aceh Darussalam (NAD)","provice_canonical":"nanggroe aceh darussalam (nad)","type":"Kabupaten","postal_code":"23674"},{"city_id":301,"city_name":"Nagekeo","city_name_canonical":"nagekeo","province_id":23,"province":"Nusa Tenggara Timur (NTT)","provice_canonical":"nusa tenggara timur (ntt)","type":"Kabupaten","postal_code":"86911"},{"city_id":302,"city_name":"Natuna","city_name_canonical":"natuna","province_id":17,"province":"Kepulauan Riau","provice_canonical":"kepulauan riau","type":"Kabupaten","postal_code":"29711"},{"city_id":303,"city_name":"Nduga","city_name_canonical":"nduga","province_id":24,"province":"Papua","provice_canonical":"papua","type":"Kabupaten","postal_code":"99541"},{"city_id":304,"city_name":"Ngada","city_name_canonical":"ngada","province_id":23,"province":"Nusa Tenggara Timur (NTT)","provice_canonical":"nusa tenggara timur (ntt)","type":"Kabupaten","postal_code":"86413"},{"city_id":305,"city_name":"Nganjuk","city_name_canonical":"nganjuk","province_id":11,"province":"Jawa Timur","provice_canonical":"jawa timur","type":"Kabupaten","postal_code":"64414"},{"city_id":306,"city_name":"Ngawi","city_name_canonical":"ngawi","province_id":11,"province":"Jawa Timur","provice_canonical":"jawa timur","type":"Kabupaten","postal_code":"63219"},{"city_id":307,"city_name":"Nias","city_name_canonical":"nias","province_id":34,"province":"Sumatera Utara","provice_canonical":"sumatera utara","type":"Kabupaten","postal_code":"22876"},{"city_id":308,"city_name":"Nias Barat","city_name_canonical":"nias barat","province_id":34,"province":"Sumatera Utara","provice_canonical":"sumatera utara","type":"Kabupaten","postal_code":"22895"},{"city_id":309,"city_name":"Nias Selatan","city_name_canonical":"nias selatan","province_id":34,"province":"Sumatera Utara","provice_canonical":"sumatera utara","type":"Kabupaten","postal_code":"22865"},{"city_id":310,"city_name":"Nias Utara","city_name_canonical":"nias utara","province_id":34,"province":"Sumatera Utara","provice_canonical":"sumatera utara","type":"Kabupaten","postal_code":"22856"},{"city_id":311,"city_name":"Nunukan","city_name_canonical":"nunukan","province_id":16,"province":"Kalimantan Utara","provice_canonical":"kalimantan utara","type":"Kabupaten","postal_code":"77421"},{"city_id":312,"city_name":"Ogan Ilir","city_name_canonical":"ogan ilir","province_id":33,"province":"Sumatera Selatan","provice_canonical":"sumatera selatan","type":"Kabupaten","postal_code":"30811"},{"city_id":313,"city_name":"Ogan Komering Ilir","city_name_canonical":"ogan komering ilir","province_id":33,"province":"Sumatera Selatan","provice_canonical":"sumatera selatan","type":"Kabupaten","postal_code":"30618"},{"city_id":314,"city_name":"Ogan Komering Ulu","city_name_canonical":"ogan komering ulu","province_id":33,"province":"Sumatera Selatan","provice_canonical":"sumatera selatan","type":"Kabupaten","postal_code":"32112"},{"city_id":315,"city_name":"Ogan Komering Ulu Selatan","city_name_canonical":"ogan komering ulu selatan","province_id":33,"province":"Sumatera Selatan","provice_canonical":"sumatera selatan","type":"Kabupaten","postal_code":"32211"},{"city_id":316,"city_name":"Ogan Komering Ulu Timur","city_name_canonical":"ogan komering ulu timur","province_id":33,"province":"Sumatera Selatan","provice_canonical":"sumatera selatan","type":"Kabupaten","postal_code":"32312"},{"city_id":317,"city_name":"Pacitan","city_name_canonical":"pacitan","province_id":11,"province":"Jawa Timur","provice_canonical":"jawa timur","type":"Kabupaten","postal_code":"63512"},{"city_id":318,"city_name":"Padang","city_name_canonical":"padang","province_id":32,"province":"Sumatera Barat","provice_canonical":"sumatera barat","type":"Kota","postal_code":"25112"},{"city_id":319,"city_name":"Padang Lawas","city_name_canonical":"padang lawas","province_id":34,"province":"Sumatera Utara","provice_canonical":"sumatera utara","type":"Kabupaten","postal_code":"22763"},{"city_id":320,"city_name":"Padang Lawas Utara","city_name_canonical":"padang lawas utara","province_id":34,"province":"Sumatera Utara","provice_canonical":"sumatera utara","type":"Kabupaten","postal_code":"22753"},{"city_id":321,"city_name":"Padang Panjang","city_name_canonical":"padang panjang","province_id":32,"province":"Sumatera Barat","provice_canonical":"sumatera barat","type":"Kota","postal_code":"27122"},{"city_id":322,"city_name":"Padang Pariaman","city_name_canonical":"padang pariaman","province_id":32,"province":"Sumatera Barat","provice_canonical":"sumatera barat","type":"Kabupaten","postal_code":"25583"},{"city_id":323,"city_name":"Padang Sidempuan","city_name_canonical":"padang sidempuan","province_id":34,"province":"Sumatera Utara","provice_canonical":"sumatera utara","type":"Kota","postal_code":"22727"},{"city_id":324,"city_name":"Pagar Alam","city_name_canonical":"pagar alam","province_id":33,"province":"Sumatera Selatan","provice_canonical":"sumatera selatan","type":"Kota","postal_code":"31512"},{"city_id":325,"city_name":"Pakpak Bharat","city_name_canonical":"pakpak bharat","province_id":34,"province":"Sumatera Utara","provice_canonical":"sumatera utara","type":"Kabupaten","postal_code":"22272"},{"city_id":326,"city_name":"Palangka Raya","city_name_canonical":"palangka raya","province_id":14,"province":"Kalimantan Tengah","provice_canonical":"kalimantan tengah","type":"Kota","postal_code":"73112"},{"city_id":327,"city_name":"Palembang","city_name_canonical":"palembang","province_id":33,"province":"Sumatera Selatan","provice_canonical":"sumatera selatan","type":"Kota","postal_code":"31512"},{"city_id":328,"city_name":"Palopo","city_name_canonical":"palopo","province_id":28,"province":"Sulawesi Selatan","provice_canonical":"sulawesi selatan","type":"Kota","postal_code":"91911"},{"city_id":329,"city_name":"Palu","city_name_canonical":"palu","province_id":29,"province":"Sulawesi Tengah","provice_canonical":"sulawesi tengah","type":"Kota","postal_code":"94111"},{"city_id":330,"city_name":"Pamekasan","city_name_canonical":"pamekasan","province_id":11,"province":"Jawa Timur","provice_canonical":"jawa timur","type":"Kabupaten","postal_code":"69319"},{"city_id":331,"city_name":"Pandeglang","city_name_canonical":"pandeglang","province_id":3,"province":"Banten","provice_canonical":"banten","type":"Kabupaten","postal_code":"42212"},{"city_id":332,"city_name":"Pangandaran","city_name_canonical":"pangandaran","province_id":9,"province":"Jawa Barat","provice_canonical":"jawa barat","type":"Kabupaten","postal_code":"46511"},{"city_id":333,"city_name":"Pangkajene Kepulauan","city_name_canonical":"pangkajene kepulauan","province_id":28,"province":"Sulawesi Selatan","provice_canonical":"sulawesi selatan","type":"Kabupaten","postal_code":"90611"},{"city_id":334,"city_name":"Pangkal Pinang","city_name_canonical":"pangkal pinang","province_id":2,"province":"Bangka Belitung","provice_canonical":"bangka belitung","type":"Kota","postal_code":"33115"},{"city_id":335,"city_name":"Paniai","city_name_canonical":"paniai","province_id":24,"province":"Papua","provice_canonical":"papua","type":"Kabupaten","postal_code":"98765"},{"city_id":336,"city_name":"Parepare","city_name_canonical":"parepare","province_id":28,"province":"Sulawesi Selatan","provice_canonical":"sulawesi selatan","type":"Kota","postal_code":"91123"},{"city_id":337,"city_name":"Pariaman","city_name_canonical":"pariaman","province_id":32,"province":"Sumatera Barat","provice_canonical":"sumatera barat","type":"Kota","postal_code":"25511"},{"city_id":338,"city_name":"Parigi Moutong","city_name_canonical":"parigi moutong","province_id":29,"province":"Sulawesi Tengah","provice_canonical":"sulawesi tengah","type":"Kabupaten","postal_code":"94411"},{"city_id":339,"city_name":"Pasaman","city_name_canonical":"pasaman","province_id":32,"province":"Sumatera Barat","provice_canonical":"sumatera barat","type":"Kabupaten","postal_code":"26318"},{"city_id":340,"city_name":"Pasaman Barat","city_name_canonical":"pasaman barat","province_id":32,"province":"Sumatera Barat","provice_canonical":"sumatera barat","type":"Kabupaten","postal_code":"26511"},{"city_id":341,"city_name":"Paser","city_name_canonical":"paser","province_id":15,"province":"Kalimantan Timur","provice_canonical":"kalimantan timur","type":"Kabupaten","postal_code":"76211"},{"city_id":342,"city_name":"Pasuruan","city_name_canonical":"pasuruan","province_id":11,"province":"Jawa Timur","provice_canonical":"jawa timur","type":"Kabupaten","postal_code":"67153"},{"city_id":343,"city_name":"Pasuruan","city_name_canonical":"pasuruan","province_id":11,"province":"Jawa Timur","provice_canonical":"jawa timur","type":"Kota","postal_code":"67118"},{"city_id":344,"city_name":"Pati","city_name_canonical":"pati","province_id":10,"province":"Jawa Tengah","provice_canonical":"jawa tengah","type":"Kabupaten","postal_code":"59114"},{"city_id":345,"city_name":"Payakumbuh","city_name_canonical":"payakumbuh","province_id":32,"province":"Sumatera Barat","provice_canonical":"sumatera barat","type":"Kota","postal_code":"26213"},{"city_id":346,"city_name":"Pegunungan Arfak","city_name_canonical":"pegunungan arfak","province_id":25,"province":"Papua Barat","provice_canonical":"papua barat","type":"Kabupaten","postal_code":"98354"},{"city_id":347,"city_name":"Pegunungan Bintang","city_name_canonical":"pegunungan bintang","province_id":24,"province":"Papua","provice_canonical":"papua","type":"Kabupaten","postal_code":"99573"},{"city_id":348,"city_name":"Pekalongan","city_name_canonical":"pekalongan","province_id":10,"province":"Jawa Tengah","provice_canonical":"jawa tengah","type":"Kabupaten","postal_code":"51161"},{"city_id":349,"city_name":"Pekalongan","city_name_canonical":"pekalongan","province_id":10,"province":"Jawa Tengah","provice_canonical":"jawa tengah","type":"Kota","postal_code":"51122"},{"city_id":350,"city_name":"Pekanbaru","city_name_canonical":"pekanbaru","province_id":26,"province":"Riau","provice_canonical":"riau","type":"Kota","postal_code":"28112"},{"city_id":351,"city_name":"Pelalawan","city_name_canonical":"pelalawan","province_id":26,"province":"Riau","provice_canonical":"riau","type":"Kabupaten","postal_code":"28311"},{"city_id":352,"city_name":"Pemalang","city_name_canonical":"pemalang","province_id":10,"province":"Jawa Tengah","provice_canonical":"jawa tengah","type":"Kabupaten","postal_code":"52319"},{"city_id":353,"city_name":"Pematang Siantar","city_name_canonical":"pematang siantar","province_id":34,"province":"Sumatera Utara","provice_canonical":"sumatera utara","type":"Kota","postal_code":"21126"},{"city_id":354,"city_name":"Penajam Paser Utara","city_name_canonical":"penajam paser utara","province_id":15,"province":"Kalimantan Timur","provice_canonical":"kalimantan timur","type":"Kabupaten","postal_code":"76311"},{"city_id":355,"city_name":"Pesawaran","city_name_canonical":"pesawaran","province_id":18,"province":"Lampung","provice_canonical":"lampung","type":"Kabupaten","postal_code":"35312"},{"city_id":356,"city_name":"Pesisir Barat","city_name_canonical":"pesisir barat","province_id":18,"province":"Lampung","provice_canonical":"lampung","type":"Kabupaten","postal_code":"35974"},{"city_id":357,"city_name":"Pesisir Selatan","city_name_canonical":"pesisir selatan","province_id":32,"province":"Sumatera Barat","provice_canonical":"sumatera barat","type":"Kabupaten","postal_code":"25611"},{"city_id":358,"city_name":"Pidie","city_name_canonical":"pidie","province_id":21,"province":"Nanggroe Aceh Darussalam (NAD)","provice_canonical":"nanggroe aceh darussalam (nad)","type":"Kabupaten","postal_code":"24116"},{"city_id":359,"city_name":"Pidie Jaya","city_name_canonical":"pidie jaya","province_id":21,"province":"Nanggroe Aceh Darussalam (NAD)","provice_canonical":"nanggroe aceh darussalam (nad)","type":"Kabupaten","postal_code":"24186"},{"city_id":360,"city_name":"Pinrang","city_name_canonical":"pinrang","province_id":28,"province":"Sulawesi Selatan","provice_canonical":"sulawesi selatan","type":"Kabupaten","postal_code":"91251"},{"city_id":361,"city_name":"Pohuwato","city_name_canonical":"pohuwato","province_id":7,"province":"Gorontalo","provice_canonical":"gorontalo","type":"Kabupaten","postal_code":"96419"},{"city_id":362,"city_name":"Polewali Mandar","city_name_canonical":"polewali mandar","province_id":27,"province":"Sulawesi Barat","provice_canonical":"sulawesi barat","type":"Kabupaten","postal_code":"91311"},{"city_id":363,"city_name":"Ponorogo","city_name_canonical":"ponorogo","province_id":11,"province":"Jawa Timur","provice_canonical":"jawa timur","type":"Kabupaten","postal_code":"63411"},{"city_id":364,"city_name":"Pontianak","city_name_canonical":"pontianak","province_id":12,"province":"Kalimantan Barat","provice_canonical":"kalimantan barat","type":"Kabupaten","postal_code":"78971"},{"city_id":365,"city_name":"Pontianak","city_name_canonical":"pontianak","province_id":12,"province":"Kalimantan Barat","provice_canonical":"kalimantan barat","type":"Kota","postal_code":"78112"},{"city_id":366,"city_name":"Poso","city_name_canonical":"poso","province_id":29,"province":"Sulawesi Tengah","provice_canonical":"sulawesi tengah","type":"Kabupaten","postal_code":"94615"},{"city_id":367,"city_name":"Prabumulih","city_name_canonical":"prabumulih","province_id":33,"province":"Sumatera Selatan","provice_canonical":"sumatera selatan","type":"Kota","postal_code":"31121"},{"city_id":368,"city_name":"Pringsewu","city_name_canonical":"pringsewu","province_id":18,"province":"Lampung","provice_canonical":"lampung","type":"Kabupaten","postal_code":"35719"},{"city_id":369,"city_name":"Probolinggo","city_name_canonical":"probolinggo","province_id":11,"province":"Jawa Timur","provice_canonical":"jawa timur","type":"Kabupaten","postal_code":"67282"},{"city_id":370,"city_name":"Probolinggo","city_name_canonical":"probolinggo","province_id":11,"province":"Jawa Timur","provice_canonical":"jawa timur","type":"Kota","postal_code":"67215"},{"city_id":371,"city_name":"Pulang Pisau","city_name_canonical":"pulang pisau","province_id":14,"province":"Kalimantan Tengah","provice_canonical":"kalimantan tengah","type":"Kabupaten","postal_code":"74811"},{"city_id":372,"city_name":"Pulau Morotai","city_name_canonical":"pulau morotai","province_id":20,"province":"Maluku Utara","provice_canonical":"maluku utara","type":"Kabupaten","postal_code":"97771"},{"city_id":373,"city_name":"Puncak","city_name_canonical":"puncak","province_id":24,"province":"Papua","provice_canonical":"papua","type":"Kabupaten","postal_code":"98981"},{"city_id":374,"city_name":"Puncak Jaya","city_name_canonical":"puncak jaya","province_id":24,"province":"Papua","provice_canonical":"papua","type":"Kabupaten","postal_code":"98979"},{"city_id":375,"city_name":"Purbalingga","city_name_canonical":"purbalingga","province_id":10,"province":"Jawa Tengah","provice_canonical":"jawa tengah","type":"Kabupaten","postal_code":"53312"},{"city_id":376,"city_name":"Purwakarta","city_name_canonical":"purwakarta","province_id":9,"province":"Jawa Barat","provice_canonical":"jawa barat","type":"Kabupaten","postal_code":"41119"},{"city_id":377,"city_name":"Purworejo","city_name_canonical":"purworejo","province_id":10,"province":"Jawa Tengah","provice_canonical":"jawa tengah","type":"Kabupaten","postal_code":"54111"},{"city_id":378,"city_name":"Raja Ampat","city_name_canonical":"raja ampat","province_id":25,"province":"Papua Barat","provice_canonical":"papua barat","type":"Kabupaten","postal_code":"98489"},{"city_id":379,"city_name":"Rejang Lebong","city_name_canonical":"rejang lebong","province_id":4,"province":"Bengkulu","provice_canonical":"bengkulu","type":"Kabupaten","postal_code":"39112"},{"city_id":380,"city_name":"Rembang","city_name_canonical":"rembang","province_id":10,"province":"Jawa Tengah","provice_canonical":"jawa tengah","type":"Kabupaten","postal_code":"59219"},{"city_id":381,"city_name":"Rokan Hilir","city_name_canonical":"rokan hilir","province_id":26,"province":"Riau","provice_canonical":"riau","type":"Kabupaten","postal_code":"28992"},{"city_id":382,"city_name":"Rokan Hulu","city_name_canonical":"rokan hulu","province_id":26,"province":"Riau","provice_canonical":"riau","type":"Kabupaten","postal_code":"28511"},{"city_id":383,"city_name":"Rote Ndao","city_name_canonical":"rote ndao","province_id":23,"province":"Nusa Tenggara Timur (NTT)","provice_canonical":"nusa tenggara timur (ntt)","type":"Kabupaten","postal_code":"85982"},{"city_id":384,"city_name":"Sabang","city_name_canonical":"sabang","province_id":21,"province":"Nanggroe Aceh Darussalam (NAD)","provice_canonical":"nanggroe aceh darussalam (nad)","type":"Kota","postal_code":"23512"},{"city_id":385,"city_name":"Sabu Raijua","city_name_canonical":"sabu raijua","province_id":23,"province":"Nusa Tenggara Timur (NTT)","provice_canonical":"nusa tenggara timur (ntt)","type":"Kabupaten","postal_code":"85391"},{"city_id":386,"city_name":"Salatiga","city_name_canonical":"salatiga","province_id":10,"province":"Jawa Tengah","provice_canonical":"jawa tengah","type":"Kota","postal_code":"50711"},{"city_id":387,"city_name":"Samarinda","city_name_canonical":"samarinda","province_id":15,"province":"Kalimantan Timur","provice_canonical":"kalimantan timur","type":"Kota","postal_code":"75133"},{"city_id":388,"city_name":"Sambas","city_name_canonical":"sambas","province_id":12,"province":"Kalimantan Barat","provice_canonical":"kalimantan barat","type":"Kabupaten","postal_code":"79453"},{"city_id":389,"city_name":"Samosir","city_name_canonical":"samosir","province_id":34,"province":"Sumatera Utara","provice_canonical":"sumatera utara","type":"Kabupaten","postal_code":"22392"},{"city_id":390,"city_name":"Sampang","city_name_canonical":"sampang","province_id":11,"province":"Jawa Timur","provice_canonical":"jawa timur","type":"Kabupaten","postal_code":"69219"},{"city_id":391,"city_name":"Sanggau","city_name_canonical":"sanggau","province_id":12,"province":"Kalimantan Barat","provice_canonical":"kalimantan barat","type":"Kabupaten","postal_code":"78557"},{"city_id":392,"city_name":"Sarmi","city_name_canonical":"sarmi","province_id":24,"province":"Papua","provice_canonical":"papua","type":"Kabupaten","postal_code":"99373"},{"city_id":393,"city_name":"Sarolangun","city_name_canonical":"sarolangun","province_id":8,"province":"Jambi","provice_canonical":"jambi","type":"Kabupaten","postal_code":"37419"},{"city_id":394,"city_name":"Sawah Lunto","city_name_canonical":"sawah lunto","province_id":32,"province":"Sumatera Barat","provice_canonical":"sumatera barat","type":"Kota","postal_code":"27416"},{"city_id":395,"city_name":"Sekadau","city_name_canonical":"sekadau","province_id":12,"province":"Kalimantan Barat","provice_canonical":"kalimantan barat","type":"Kabupaten","postal_code":"79583"},{"city_id":396,"city_name":"Selayar (Kepulauan Selayar)","city_name_canonical":"selayar (kepulauan selayar)","province_id":28,"province":"Sulawesi Selatan","provice_canonical":"sulawesi selatan","type":"Kabupaten","postal_code":"92812"},{"city_id":397,"city_name":"Seluma","city_name_canonical":"seluma","province_id":4,"province":"Bengkulu","provice_canonical":"bengkulu","type":"Kabupaten","postal_code":"38811"},{"city_id":398,"city_name":"Semarang","city_name_canonical":"semarang","province_id":10,"province":"Jawa Tengah","provice_canonical":"jawa tengah","type":"Kabupaten","postal_code":"50511"},{"city_id":399,"city_name":"Semarang","city_name_canonical":"semarang","province_id":10,"province":"Jawa Tengah","provice_canonical":"jawa tengah","type":"Kota","postal_code":"50135"},{"city_id":400,"city_name":"Seram Bagian Barat","city_name_canonical":"seram bagian barat","province_id":19,"province":"Maluku","provice_canonical":"maluku","type":"Kabupaten","postal_code":"97561"},{"city_id":401,"city_name":"Seram Bagian Timur","city_name_canonical":"seram bagian timur","province_id":19,"province":"Maluku","provice_canonical":"maluku","type":"Kabupaten","postal_code":"97581"},{"city_id":402,"city_name":"Serang","city_name_canonical":"serang","province_id":3,"province":"Banten","provice_canonical":"banten","type":"Kabupaten","postal_code":"42182"},{"city_id":403,"city_name":"Serang","city_name_canonical":"serang","province_id":3,"province":"Banten","provice_canonical":"banten","type":"Kota","postal_code":"42111"},{"city_id":404,"city_name":"Serdang Bedagai","city_name_canonical":"serdang bedagai","province_id":34,"province":"Sumatera Utara","provice_canonical":"sumatera utara","type":"Kabupaten","postal_code":"20915"},{"city_id":405,"city_name":"Seruyan","city_name_canonical":"seruyan","province_id":14,"province":"Kalimantan Tengah","provice_canonical":"kalimantan tengah","type":"Kabupaten","postal_code":"74211"},{"city_id":406,"city_name":"Siak","city_name_canonical":"siak","province_id":26,"province":"Riau","provice_canonical":"riau","type":"Kabupaten","postal_code":"28623"},{"city_id":407,"city_name":"Sibolga","city_name_canonical":"sibolga","province_id":34,"province":"Sumatera Utara","provice_canonical":"sumatera utara","type":"Kota","postal_code":"22522"},{"city_id":408,"city_name":"Sidenreng Rappang\/Rapang","city_name_canonical":"sidenreng rappang\/rapang","province_id":28,"province":"Sulawesi Selatan","provice_canonical":"sulawesi selatan","type":"Kabupaten","postal_code":"91613"},{"city_id":409,"city_name":"Sidoarjo","city_name_canonical":"sidoarjo","province_id":11,"province":"Jawa Timur","provice_canonical":"jawa timur","type":"Kabupaten","postal_code":"61219"},{"city_id":410,"city_name":"Sigi","city_name_canonical":"sigi","province_id":29,"province":"Sulawesi Tengah","provice_canonical":"sulawesi tengah","type":"Kabupaten","postal_code":"94364"},{"city_id":411,"city_name":"Sijunjung (Sawah Lunto Sijunjung)","city_name_canonical":"sijunjung (sawah lunto sijunjung)","province_id":32,"province":"Sumatera Barat","provice_canonical":"sumatera barat","type":"Kabupaten","postal_code":"27511"},{"city_id":412,"city_name":"Sikka","city_name_canonical":"sikka","province_id":23,"province":"Nusa Tenggara Timur (NTT)","provice_canonical":"nusa tenggara timur (ntt)","type":"Kabupaten","postal_code":"86121"},{"city_id":413,"city_name":"Simalungun","city_name_canonical":"simalungun","province_id":34,"province":"Sumatera Utara","provice_canonical":"sumatera utara","type":"Kabupaten","postal_code":"21162"},{"city_id":414,"city_name":"Simeulue","city_name_canonical":"simeulue","province_id":21,"province":"Nanggroe Aceh Darussalam (NAD)","provice_canonical":"nanggroe aceh darussalam (nad)","type":"Kabupaten","postal_code":"23891"},{"city_id":415,"city_name":"Singkawang","city_name_canonical":"singkawang","province_id":12,"province":"Kalimantan Barat","provice_canonical":"kalimantan barat","type":"Kota","postal_code":"79117"},{"city_id":416,"city_name":"Sinjai","city_name_canonical":"sinjai","province_id":28,"province":"Sulawesi Selatan","provice_canonical":"sulawesi selatan","type":"Kabupaten","postal_code":"92615"},{"city_id":417,"city_name":"Sintang","city_name_canonical":"sintang","province_id":12,"province":"Kalimantan Barat","provice_canonical":"kalimantan barat","type":"Kabupaten","postal_code":"78619"},{"city_id":418,"city_name":"Situbondo","city_name_canonical":"situbondo","province_id":11,"province":"Jawa Timur","provice_canonical":"jawa timur","type":"Kabupaten","postal_code":"68316"},{"city_id":419,"city_name":"Sleman","city_name_canonical":"sleman","province_id":5,"province":"DI Yogyakarta","provice_canonical":"di yogyakarta","type":"Kabupaten","postal_code":"55513"},{"city_id":420,"city_name":"Solok","city_name_canonical":"solok","province_id":32,"province":"Sumatera Barat","provice_canonical":"sumatera barat","type":"Kabupaten","postal_code":"27365"},{"city_id":421,"city_name":"Solok","city_name_canonical":"solok","province_id":32,"province":"Sumatera Barat","provice_canonical":"sumatera barat","type":"Kota","postal_code":"27315"},{"city_id":422,"city_name":"Solok Selatan","city_name_canonical":"solok selatan","province_id":32,"province":"Sumatera Barat","provice_canonical":"sumatera barat","type":"Kabupaten","postal_code":"27779"},{"city_id":423,"city_name":"Soppeng","city_name_canonical":"soppeng","province_id":28,"province":"Sulawesi Selatan","provice_canonical":"sulawesi selatan","type":"Kabupaten","postal_code":"90812"},{"city_id":424,"city_name":"Sorong","city_name_canonical":"sorong","province_id":25,"province":"Papua Barat","provice_canonical":"papua barat","type":"Kabupaten","postal_code":"98431"},{"city_id":425,"city_name":"Sorong","city_name_canonical":"sorong","province_id":25,"province":"Papua Barat","provice_canonical":"papua barat","type":"Kota","postal_code":"98411"},{"city_id":426,"city_name":"Sorong Selatan","city_name_canonical":"sorong selatan","province_id":25,"province":"Papua Barat","provice_canonical":"papua barat","type":"Kabupaten","postal_code":"98454"},{"city_id":427,"city_name":"Sragen","city_name_canonical":"sragen","province_id":10,"province":"Jawa Tengah","provice_canonical":"jawa tengah","type":"Kabupaten","postal_code":"57211"},{"city_id":428,"city_name":"Subang","city_name_canonical":"subang","province_id":9,"province":"Jawa Barat","provice_canonical":"jawa barat","type":"Kabupaten","postal_code":"41215"},{"city_id":429,"city_name":"Subulussalam","city_name_canonical":"subulussalam","province_id":21,"province":"Nanggroe Aceh Darussalam (NAD)","provice_canonical":"nanggroe aceh darussalam (nad)","type":"Kota","postal_code":"24882"},{"city_id":430,"city_name":"Sukabumi","city_name_canonical":"sukabumi","province_id":9,"province":"Jawa Barat","provice_canonical":"jawa barat","type":"Kabupaten","postal_code":"43311"},{"city_id":431,"city_name":"Sukabumi","city_name_canonical":"sukabumi","province_id":9,"province":"Jawa Barat","provice_canonical":"jawa barat","type":"Kota","postal_code":"43114"},{"city_id":432,"city_name":"Sukamara","city_name_canonical":"sukamara","province_id":14,"province":"Kalimantan Tengah","provice_canonical":"kalimantan tengah","type":"Kabupaten","postal_code":"74712"},{"city_id":433,"city_name":"Sukoharjo","city_name_canonical":"sukoharjo","province_id":10,"province":"Jawa Tengah","provice_canonical":"jawa tengah","type":"Kabupaten","postal_code":"57514"},{"city_id":434,"city_name":"Sumba Barat","city_name_canonical":"sumba barat","province_id":23,"province":"Nusa Tenggara Timur (NTT)","provice_canonical":"nusa tenggara timur (ntt)","type":"Kabupaten","postal_code":"87219"},{"city_id":435,"city_name":"Sumba Barat Daya","city_name_canonical":"sumba barat daya","province_id":23,"province":"Nusa Tenggara Timur (NTT)","provice_canonical":"nusa tenggara timur (ntt)","type":"Kabupaten","postal_code":"87453"},{"city_id":436,"city_name":"Sumba Tengah","city_name_canonical":"sumba tengah","province_id":23,"province":"Nusa Tenggara Timur (NTT)","provice_canonical":"nusa tenggara timur (ntt)","type":"Kabupaten","postal_code":"87358"},{"city_id":437,"city_name":"Sumba Timur","city_name_canonical":"sumba timur","province_id":23,"province":"Nusa Tenggara Timur (NTT)","provice_canonical":"nusa tenggara timur (ntt)","type":"Kabupaten","postal_code":"87112"},{"city_id":438,"city_name":"Sumbawa","city_name_canonical":"sumbawa","province_id":22,"province":"Nusa Tenggara Barat (NTB)","provice_canonical":"nusa tenggara barat (ntb)","type":"Kabupaten","postal_code":"84315"},{"city_id":439,"city_name":"Sumbawa Barat","city_name_canonical":"sumbawa barat","province_id":22,"province":"Nusa Tenggara Barat (NTB)","provice_canonical":"nusa tenggara barat (ntb)","type":"Kabupaten","postal_code":"84419"},{"city_id":440,"city_name":"Sumedang","city_name_canonical":"sumedang","province_id":9,"province":"Jawa Barat","provice_canonical":"jawa barat","type":"Kabupaten","postal_code":"45326"},{"city_id":441,"city_name":"Sumenep","city_name_canonical":"sumenep","province_id":11,"province":"Jawa Timur","provice_canonical":"jawa timur","type":"Kabupaten","postal_code":"69413"},{"city_id":442,"city_name":"Sungaipenuh","city_name_canonical":"sungaipenuh","province_id":8,"province":"Jambi","provice_canonical":"jambi","type":"Kota","postal_code":"37113"},{"city_id":443,"city_name":"Supiori","city_name_canonical":"supiori","province_id":24,"province":"Papua","provice_canonical":"papua","type":"Kabupaten","postal_code":"98164"},{"city_id":444,"city_name":"Surabaya","city_name_canonical":"surabaya","province_id":11,"province":"Jawa Timur","provice_canonical":"jawa timur","type":"Kota","postal_code":"60119"},{"city_id":445,"city_name":"Surakarta (Solo)","city_name_canonical":"surakarta (solo)","province_id":10,"province":"Jawa Tengah","provice_canonical":"jawa tengah","type":"Kota","postal_code":"57113"},{"city_id":446,"city_name":"Tabalong","city_name_canonical":"tabalong","province_id":13,"province":"Kalimantan Selatan","provice_canonical":"kalimantan selatan","type":"Kabupaten","postal_code":"71513"},{"city_id":447,"city_name":"Tabanan","city_name_canonical":"tabanan","province_id":1,"province":"Bali","provice_canonical":"bali","type":"Kabupaten","postal_code":"82119"},{"city_id":448,"city_name":"Takalar","city_name_canonical":"takalar","province_id":28,"province":"Sulawesi Selatan","provice_canonical":"sulawesi selatan","type":"Kabupaten","postal_code":"92212"},{"city_id":449,"city_name":"Tambrauw","city_name_canonical":"tambrauw","province_id":25,"province":"Papua Barat","provice_canonical":"papua barat","type":"Kabupaten","postal_code":"98475"},{"city_id":450,"city_name":"Tana Tidung","city_name_canonical":"tana tidung","province_id":16,"province":"Kalimantan Utara","provice_canonical":"kalimantan utara","type":"Kabupaten","postal_code":"77611"},{"city_id":451,"city_name":"Tana Toraja","city_name_canonical":"tana toraja","province_id":28,"province":"Sulawesi Selatan","provice_canonical":"sulawesi selatan","type":"Kabupaten","postal_code":"91819"},{"city_id":452,"city_name":"Tanah Bumbu","city_name_canonical":"tanah bumbu","province_id":13,"province":"Kalimantan Selatan","provice_canonical":"kalimantan selatan","type":"Kabupaten","postal_code":"72211"},{"city_id":453,"city_name":"Tanah Datar","city_name_canonical":"tanah datar","province_id":32,"province":"Sumatera Barat","provice_canonical":"sumatera barat","type":"Kabupaten","postal_code":"27211"},{"city_id":454,"city_name":"Tanah Laut","city_name_canonical":"tanah laut","province_id":13,"province":"Kalimantan Selatan","provice_canonical":"kalimantan selatan","type":"Kabupaten","postal_code":"70811"},{"city_id":455,"city_name":"Tangerang","city_name_canonical":"tangerang","province_id":3,"province":"Banten","provice_canonical":"banten","type":"Kabupaten","postal_code":"15914"},{"city_id":456,"city_name":"Tangerang","city_name_canonical":"tangerang","province_id":3,"province":"Banten","provice_canonical":"banten","type":"Kota","postal_code":"15111"},{"city_id":457,"city_name":"Tangerang Selatan","city_name_canonical":"tangerang selatan","province_id":3,"province":"Banten","provice_canonical":"banten","type":"Kota","postal_code":"15332"},{"city_id":458,"city_name":"Tanggamus","city_name_canonical":"tanggamus","province_id":18,"province":"Lampung","provice_canonical":"lampung","type":"Kabupaten","postal_code":"35619"},{"city_id":459,"city_name":"Tanjung Balai","city_name_canonical":"tanjung balai","province_id":34,"province":"Sumatera Utara","provice_canonical":"sumatera utara","type":"Kota","postal_code":"21321"},{"city_id":460,"city_name":"Tanjung Jabung Barat","city_name_canonical":"tanjung jabung barat","province_id":8,"province":"Jambi","provice_canonical":"jambi","type":"Kabupaten","postal_code":"36513"},{"city_id":461,"city_name":"Tanjung Jabung Timur","city_name_canonical":"tanjung jabung timur","province_id":8,"province":"Jambi","provice_canonical":"jambi","type":"Kabupaten","postal_code":"36719"},{"city_id":462,"city_name":"Tanjung Pinang","city_name_canonical":"tanjung pinang","province_id":17,"province":"Kepulauan Riau","provice_canonical":"kepulauan riau","type":"Kota","postal_code":"29111"},{"city_id":463,"city_name":"Tapanuli Selatan","city_name_canonical":"tapanuli selatan","province_id":34,"province":"Sumatera Utara","provice_canonical":"sumatera utara","type":"Kabupaten","postal_code":"22742"},{"city_id":464,"city_name":"Tapanuli Tengah","city_name_canonical":"tapanuli tengah","province_id":34,"province":"Sumatera Utara","provice_canonical":"sumatera utara","type":"Kabupaten","postal_code":"22611"},{"city_id":465,"city_name":"Tapanuli Utara","city_name_canonical":"tapanuli utara","province_id":34,"province":"Sumatera Utara","provice_canonical":"sumatera utara","type":"Kabupaten","postal_code":"22414"},{"city_id":466,"city_name":"Tapin","city_name_canonical":"tapin","province_id":13,"province":"Kalimantan Selatan","provice_canonical":"kalimantan selatan","type":"Kabupaten","postal_code":"71119"},{"city_id":467,"city_name":"Tarakan","city_name_canonical":"tarakan","province_id":16,"province":"Kalimantan Utara","provice_canonical":"kalimantan utara","type":"Kota","postal_code":"77114"},{"city_id":468,"city_name":"Tasikmalaya","city_name_canonical":"tasikmalaya","province_id":9,"province":"Jawa Barat","provice_canonical":"jawa barat","type":"Kabupaten","postal_code":"46411"},{"city_id":469,"city_name":"Tasikmalaya","city_name_canonical":"tasikmalaya","province_id":9,"province":"Jawa Barat","provice_canonical":"jawa barat","type":"Kota","postal_code":"46116"},{"city_id":470,"city_name":"Tebing Tinggi","city_name_canonical":"tebing tinggi","province_id":34,"province":"Sumatera Utara","provice_canonical":"sumatera utara","type":"Kota","postal_code":"20632"},{"city_id":471,"city_name":"Tebo","city_name_canonical":"tebo","province_id":8,"province":"Jambi","provice_canonical":"jambi","type":"Kabupaten","postal_code":"37519"},{"city_id":472,"city_name":"Tegal","city_name_canonical":"tegal","province_id":10,"province":"Jawa Tengah","provice_canonical":"jawa tengah","type":"Kabupaten","postal_code":"52419"},{"city_id":473,"city_name":"Tegal","city_name_canonical":"tegal","province_id":10,"province":"Jawa Tengah","provice_canonical":"jawa tengah","type":"Kota","postal_code":"52114"},{"city_id":474,"city_name":"Teluk Bintuni","city_name_canonical":"teluk bintuni","province_id":25,"province":"Papua Barat","provice_canonical":"papua barat","type":"Kabupaten","postal_code":"98551"},{"city_id":475,"city_name":"Teluk Wondama","city_name_canonical":"teluk wondama","province_id":25,"province":"Papua Barat","provice_canonical":"papua barat","type":"Kabupaten","postal_code":"98591"},{"city_id":476,"city_name":"Temanggung","city_name_canonical":"temanggung","province_id":10,"province":"Jawa Tengah","provice_canonical":"jawa tengah","type":"Kabupaten","postal_code":"56212"},{"city_id":477,"city_name":"Ternate","city_name_canonical":"ternate","province_id":20,"province":"Maluku Utara","provice_canonical":"maluku utara","type":"Kota","postal_code":"97714"},{"city_id":478,"city_name":"Tidore Kepulauan","city_name_canonical":"tidore kepulauan","province_id":20,"province":"Maluku Utara","provice_canonical":"maluku utara","type":"Kota","postal_code":"97815"},{"city_id":479,"city_name":"Timor Tengah Selatan","city_name_canonical":"timor tengah selatan","province_id":23,"province":"Nusa Tenggara Timur (NTT)","provice_canonical":"nusa tenggara timur (ntt)","type":"Kabupaten","postal_code":"85562"},{"city_id":480,"city_name":"Timor Tengah Utara","city_name_canonical":"timor tengah utara","province_id":23,"province":"Nusa Tenggara Timur (NTT)","provice_canonical":"nusa tenggara timur (ntt)","type":"Kabupaten","postal_code":"85612"},{"city_id":481,"city_name":"Toba Samosir","city_name_canonical":"toba samosir","province_id":34,"province":"Sumatera Utara","provice_canonical":"sumatera utara","type":"Kabupaten","postal_code":"22316"},{"city_id":482,"city_name":"Tojo Una-Una","city_name_canonical":"tojo una-una","province_id":29,"province":"Sulawesi Tengah","provice_canonical":"sulawesi tengah","type":"Kabupaten","postal_code":"94683"},{"city_id":483,"city_name":"Toli-Toli","city_name_canonical":"toli-toli","province_id":29,"province":"Sulawesi Tengah","provice_canonical":"sulawesi tengah","type":"Kabupaten","postal_code":"94542"},{"city_id":484,"city_name":"Tolikara","city_name_canonical":"tolikara","province_id":24,"province":"Papua","provice_canonical":"papua","type":"Kabupaten","postal_code":"99411"},{"city_id":485,"city_name":"Tomohon","city_name_canonical":"tomohon","province_id":31,"province":"Sulawesi Utara","provice_canonical":"sulawesi utara","type":"Kota","postal_code":"95416"},{"city_id":486,"city_name":"Toraja Utara","city_name_canonical":"toraja utara","province_id":28,"province":"Sulawesi Selatan","provice_canonical":"sulawesi selatan","type":"Kabupaten","postal_code":"91831"},{"city_id":487,"city_name":"Trenggalek","city_name_canonical":"trenggalek","province_id":11,"province":"Jawa Timur","provice_canonical":"jawa timur","type":"Kabupaten","postal_code":"66312"},{"city_id":488,"city_name":"Tual","city_name_canonical":"tual","province_id":19,"province":"Maluku","provice_canonical":"maluku","type":"Kota","postal_code":"97612"},{"city_id":489,"city_name":"Tuban","city_name_canonical":"tuban","province_id":11,"province":"Jawa Timur","provice_canonical":"jawa timur","type":"Kabupaten","postal_code":"62319"},{"city_id":490,"city_name":"Tulang Bawang","city_name_canonical":"tulang bawang","province_id":18,"province":"Lampung","provice_canonical":"lampung","type":"Kabupaten","postal_code":"34613"},{"city_id":491,"city_name":"Tulang Bawang Barat","city_name_canonical":"tulang bawang barat","province_id":18,"province":"Lampung","provice_canonical":"lampung","type":"Kabupaten","postal_code":"34419"},{"city_id":492,"city_name":"Tulungagung","city_name_canonical":"tulungagung","province_id":11,"province":"Jawa Timur","provice_canonical":"jawa timur","type":"Kabupaten","postal_code":"66212"},{"city_id":493,"city_name":"Wajo","city_name_canonical":"wajo","province_id":28,"province":"Sulawesi Selatan","provice_canonical":"sulawesi selatan","type":"Kabupaten","postal_code":"90911"},{"city_id":494,"city_name":"Wakatobi","city_name_canonical":"wakatobi","province_id":30,"province":"Sulawesi Tenggara","provice_canonical":"sulawesi tenggara","type":"Kabupaten","postal_code":"93791"},{"city_id":495,"city_name":"Waropen","city_name_canonical":"waropen","province_id":24,"province":"Papua","provice_canonical":"papua","type":"Kabupaten","postal_code":"98269"},{"city_id":496,"city_name":"Way Kanan","city_name_canonical":"way kanan","province_id":18,"province":"Lampung","provice_canonical":"lampung","type":"Kabupaten","postal_code":"34711"},{"city_id":497,"city_name":"Wonogiri","city_name_canonical":"wonogiri","province_id":10,"province":"Jawa Tengah","provice_canonical":"jawa tengah","type":"Kabupaten","postal_code":"57619"},{"city_id":498,"city_name":"Wonosobo","city_name_canonical":"wonosobo","province_id":10,"province":"Jawa Tengah","provice_canonical":"jawa tengah","type":"Kabupaten","postal_code":"56311"},{"city_id":499,"city_name":"Yahukimo","city_name_canonical":"yahukimo","province_id":24,"province":"Papua","provice_canonical":"papua","type":"Kabupaten","postal_code":"99041"},{"city_id":500,"city_name":"Yalimo","city_name_canonical":"yalimo","province_id":24,"province":"Papua","provice_canonical":"papua","type":"Kabupaten","postal_code":"99481"},{"city_id":501,"city_name":"Yogyakarta","city_name_canonical":"yogyakarta","province_id":5,"province":"DI Yogyakarta","provice_canonical":"di yogyakarta","type":"Kota","postal_code":"55222"}]